{"type":"Feature","properties":{},"geometry":{"type":"MultiLineString","coordinates":[[[-77.237,1.658],[-77.245,1.658]],[[-77.245,1.658],[-77.256,1.671]],[[-77.256,1.671],[-77.263,1.67]],[[-77.263,1.67],[-77.27,1.663]],[[-76.9,1.662],[-76.909,1.675]],[[-76.909,1.675],[-76.912,1.689]],[[-76.912,1.689],[-76.917,1.702]],[[-76.917,1.702],[-76.924,1.706]],[[-76.924,1.706],[-76.926,1.719]],[[-76.926,1.719],[-76.936,1.729]],[[-76.936,1.729],[-76.946,1.727]],[[-76.946,1.727],[-76.953,1.722]],[[-76.953,1.722],[-76.96,1.722]],[[-76.96,1.722],[-76.969,1.712]],[[-76.969,1.712],[-76.982,1.713]],[[-76.982,1.713],[-76.988,1.715]],[[-76.988,1.715],[-77.001,1.707]],[[-77.001,1.707],[-77.009,1.709]],[[-77.009,1.709],[-77.016,1.715]],[[-77.016,1.715],[-77.027,1.714]],[[-77.027,1.714],[-77.029,1.711]],[[-77.029,1.711],[-77.04,1.707]],[[-77.04,1.707],[-77.046,1.698]],[[-77.046,1.698],[-77.055,1.701]],[[-77.055,1.701],[-77.059,1.695]],[[-77.059,1.695],[-77.062,1.686]],[[-77.062,1.686],[-77.07,1.674]],[[-77.177,0.671],[-77.159,0.744]],[[-77.187,0.631],[-77.177,0.671]],[[-77.139,0.822],[-77.118,0.827]],[[-77.118,0.827],[-77.102,0.833]],[[-77.102,0.833],[-77.107,0.843]],[[-77.107,0.843],[-77.114,0.85]],[[-77.114,0.85],[-77.118,0.858]],[[-77.118,0.858],[-77.116,0.876]],[[-77.116,0.876],[-77.123,0.881]],[[-77.123,0.881],[-77.121,0.892]],[[-77.121,0.892],[-77.118,0.901]],[[-77.118,0.901],[-77.108,0.904]],[[-77.108,0.904],[-77.1,0.913]],[[-77.1,0.913],[-77.091,0.914]],[[-77.091,0.914],[-77.088,0.924]],[[-77.088,0.924],[-77.084,0.929]],[[-77.084,0.929],[-77.08,0.941]],[[-77.08,0.941],[-77.073,0.942]],[[-77.073,0.942],[-77.074,0.952]],[[-77.074,0.952],[-77.079,0.962]],[[-77.079,0.962],[-77.072,0.971]],[[-77.072,0.971],[-77.066,0.974]],[[-77.066,0.974],[-77.046,0.979]],[[-77.046,0.979],[-77.039,0.993]],[[-77.039,0.993],[-77.028,0.995]],[[-77.028,0.995],[-77.029,1.005]],[[-77.029,1.005],[-77.027,1.013]],[[-77.027,1.013],[-77.029,1.021]],[[-77.029,1.021],[-77.034,1.028]],[[-77.034,1.028],[-77.039,1.039]],[[-77.039,1.039],[-77.037,1.047]],[[-77.037,1.047],[-77.055,1.033]],[[-77.055,1.033],[-77.06,1.035]],[[-77.06,1.035],[-77.062,1.041]],[[-77.062,1.041],[-77.067,1.042]],[[-77.067,1.042],[-77.065,1.052]],[[-77.065,1.052],[-77.068,1.06]],[[-77.068,1.06],[-77.072,1.058]],[[-77.072,1.058],[-77.081,1.063]],[[-77.081,1.063],[-77.084,1.062]],[[-77.084,1.062],[-77.093,1.075]],[[-77.093,1.075],[-77.095,1.082]],[[-77.095,1.082],[-77.094,1.099]],[[-77.094,1.099],[-77.097,1.103]],[[-77.097,1.103],[-77.092,1.111]],[[-77.092,1.111],[-77.092,1.118]],[[-77.092,1.118],[-77.096,1.13]],[[-77.096,1.13],[-77.101,1.135]],[[-77.101,1.135],[-77.102,1.142]],[[-77.102,1.142],[-77.097,1.157]],[[-77.097,1.157],[-77.097,1.163]],[[-77.097,1.163],[-77.086,1.174]],[[-77.086,1.174],[-77.089,1.182]],[[-77.759,0.839],[-77.747,0.833]],[[-77.747,0.833],[-77.737,0.837]],[[-77.737,0.837],[-77.721,0.849]],[[-77.721,0.849],[-77.713,0.851]],[[-77.713,0.851],[-77.704,0.841]],[[-77.704,0.841],[-77.696,0.841]],[[-77.696,0.841],[-77.693,0.833]],[[-77.693,0.833],[-77.684,0.828]],[[-77.089,1.182],[-77.069,1.185]],[[-77.069,1.185],[-77.059,1.194]],[[-77.059,1.194],[-77.044,1.199]],[[-77.044,1.199],[-77.04,1.202]],[[-77.04,1.202],[-77.021,1.196]],[[-77.021,1.196],[-77.013,1.206]],[[-77.013,1.206],[-77.005,1.207]],[[-77.005,1.207],[-77.003,1.213]],[[-77.003,1.213],[-76.995,1.215]],[[-76.995,1.215],[-76.981,1.223]],[[-76.981,1.223],[-76.979,1.233]],[[-76.979,1.233],[-76.973,1.244]],[[-76.973,1.244],[-76.971,1.253]],[[-76.971,1.253],[-76.983,1.267]],[[-76.983,1.267],[-76.984,1.272]],[[-76.984,1.272],[-76.978,1.279]],[[-76.978,1.279],[-76.979,1.287]],[[-76.979,1.287],[-76.972,1.293]],[[-76.972,1.293],[-76.969,1.287]],[[-76.969,1.287],[-76.961,1.284]],[[-76.961,1.284],[-76.964,1.277]],[[-76.964,1.277],[-76.951,1.276]],[[-76.951,1.276],[-76.94,1.273]],[[-76.94,1.273],[-76.934,1.278]],[[-76.934,1.278],[-76.933,1.285]],[[-77.27,1.663],[-77.279,1.664]],[[-77.279,1.664],[-77.283,1.673]],[[-77.283,1.673],[-77.288,1.668]],[[-77.288,1.668],[-77.297,1.673]],[[-77.297,1.673],[-77.308,1.675]],[[-77.308,1.675],[-77.314,1.679]],[[-77.314,1.679],[-77.32,1.678]],[[-77.32,1.678],[-77.33,1.682]],[[-76.933,1.285],[-76.93,1.296]],[[-76.93,1.296],[-76.925,1.303]],[[-76.925,1.303],[-76.913,1.311]],[[-76.913,1.311],[-76.912,1.315]],[[-76.912,1.315],[-76.904,1.321]],[[-76.904,1.321],[-76.91,1.328]],[[-76.91,1.328],[-76.922,1.338]],[[-76.922,1.338],[-76.921,1.346]],[[-76.921,1.346],[-76.92,1.35]],[[-76.92,1.35],[-76.925,1.357]],[[-76.925,1.357],[-76.927,1.366]],[[-76.927,1.366],[-76.926,1.376]],[[-76.926,1.376],[-76.932,1.386]],[[-76.932,1.386],[-76.932,1.4]],[[-76.932,1.4],[-76.928,1.402]],[[-76.928,1.402],[-76.924,1.41]],[[-76.924,1.41],[-76.918,1.43]],[[-76.918,1.43],[-76.924,1.442]],[[-76.924,1.442],[-76.922,1.452]],[[-76.922,1.452],[-76.926,1.469]],[[-76.926,1.469],[-76.925,1.473]],[[-76.925,1.473],[-76.929,1.483]],[[-76.929,1.483],[-76.926,1.492]],[[-76.926,1.492],[-76.929,1.5]],[[-76.853,1.636],[-76.866,1.638]],[[-76.866,1.638],[-76.877,1.646]],[[-76.877,1.646],[-76.89,1.656]],[[-76.89,1.656],[-76.895,1.664]],[[-76.895,1.664],[-76.9,1.662]],[[-76.929,1.5],[-76.913,1.501]],[[-76.913,1.501],[-76.907,1.51]],[[-76.907,1.51],[-76.888,1.523]],[[-76.888,1.523],[-76.873,1.52]],[[-76.873,1.52],[-76.859,1.522]],[[-76.859,1.522],[-76.851,1.535]],[[-76.851,1.535],[-76.857,1.543]],[[-76.857,1.543],[-76.857,1.565]],[[-76.857,1.565],[-76.852,1.569]],[[-76.852,1.569],[-76.841,1.587]],[[-76.841,1.587],[-76.84,1.598]],[[-76.84,1.598],[-76.834,1.607]],[[-76.834,1.607],[-76.834,1.614]],[[-76.834,1.614],[-76.841,1.62]],[[-76.841,1.62],[-76.845,1.627]],[[-76.845,1.627],[-76.85,1.629]],[[-76.85,1.629],[-76.853,1.636]],[[-77.159,0.744],[-77.139,0.822]],[[-77.144,1.678],[-77.158,1.682]],[[-77.158,1.682],[-77.162,1.676]],[[-77.162,1.676],[-77.172,1.678]],[[-77.172,1.678],[-77.179,1.674]],[[-77.179,1.674],[-77.187,1.677]],[[-77.187,1.677],[-77.195,1.675]],[[-77.195,1.675],[-77.222,1.665]],[[-77.222,1.665],[-77.237,1.658]],[[-77.07,1.674],[-77.072,1.669]],[[-77.072,1.669],[-77.087,1.666]],[[-77.087,1.666],[-77.095,1.661]],[[-77.095,1.661],[-77.11,1.661]],[[-77.11,1.661],[-77.14,1.657]],[[-77.14,1.657],[-77.144,1.665]],[[-77.144,1.665],[-77.144,1.678]],[[-77.203,1.952],[-77.211,1.966]],[[-77.211,1.966],[-77.209,1.971]],[[-77.209,1.971],[-77.215,1.977]],[[-77.215,1.977],[-77.221,1.988]],[[-77.221,1.988],[-77.227,1.991]],[[-77.227,1.991],[-77.247,1.992]],[[-77.247,1.992],[-77.259,1.994]],[[-77.259,1.994],[-77.273,2.006]],[[-77.273,2.006],[-77.279,2.021]],[[-77.279,2.021],[-77.297,2.026]],[[-77.297,2.026],[-77.303,2.027]],[[-77.303,2.027],[-77.306,2.036]],[[-77.306,2.036],[-77.317,2.044]],[[-77.317,2.044],[-77.332,2.05]],[[-77.332,2.05],[-77.334,2.06]],[[-77.334,2.06],[-77.32,2.072]],[[-77.32,2.072],[-77.319,2.079]],[[-77.319,2.079],[-77.315,2.087]],[[-77.315,2.087],[-77.315,2.095]],[[-77.315,2.095],[-77.311,2.097]],[[-77.311,2.097],[-77.308,2.108]],[[-77.308,2.108],[-77.309,2.125]],[[-77.295,1.832],[-77.287,1.847]],[[-77.287,1.847],[-77.282,1.85]],[[-77.282,1.85],[-77.281,1.86]],[[-77.281,1.86],[-77.256,1.869]],[[-77.256,1.869],[-77.252,1.877]],[[-77.252,1.877],[-77.248,1.88]],[[-77.248,1.88],[-77.244,1.887]],[[-77.244,1.887],[-77.246,1.911]],[[-77.246,1.911],[-77.241,1.916]],[[-77.241,1.916],[-77.231,1.917]],[[-77.231,1.917],[-77.225,1.92]],[[-77.225,1.92],[-77.218,1.917]],[[-77.218,1.917],[-77.216,1.924]],[[-77.216,1.924],[-77.22,1.934]],[[-77.22,1.934],[-77.21,1.936]],[[-77.21,1.936],[-77.203,1.952]],[[-77.684,0.828],[-77.68,0.822]],[[-77.68,0.822],[-77.673,0.824]],[[-77.673,0.824],[-77.666,0.818]],[[-77.666,0.818],[-77.664,0.811]],[[-77.664,0.811],[-77.668,0.804]],[[-77.668,0.804],[-77.675,0.801]],[[-77.675,0.801],[-77.676,0.791]],[[-77.676,0.791],[-77.662,0.79]],[[-77.662,0.79],[-77.671,0.78]],[[-77.671,0.78],[-77.683,0.776]],[[-77.683,0.776],[-77.691,0.766]],[[-77.691,0.766],[-77.692,0.759]],[[-77.692,0.759],[-77.697,0.755]],[[-77.697,0.755],[-77.698,0.741]],[[-77.698,0.741],[-77.675,0.737]],[[-77.675,0.737],[-77.674,0.722]],[[-77.674,0.722],[-77.67,0.711]],[[-77.67,0.711],[-77.666,0.705]],[[-77.666,0.705],[-77.652,0.706]],[[-77.652,0.706],[-77.639,0.703]],[[-77.639,0.703],[-77.629,0.696]],[[-77.629,0.696],[-77.625,0.696]],[[-77.625,0.696],[-77.608,0.686]],[[-77.608,0.686],[-77.602,0.675]],[[-77.602,0.675],[-77.589,0.674]],[[-77.589,0.674],[-77.577,0.66]],[[-77.577,0.66],[-77.569,0.658]],[[-77.569,0.658],[-77.564,0.652]],[[-77.564,0.652],[-77.548,0.649]],[[-77.548,0.649],[-77.532,0.653]],[[-77.532,0.653],[-77.527,0.656]],[[-77.527,0.656],[-77.498,0.659]],[[-77.498,0.659],[-77.492,0.663]],[[-77.492,0.663],[-77.486,0.656]],[[-77.486,0.656],[-77.483,0.645]],[[-77.483,0.645],[-77.48,0.641]],[[-77.48,0.641],[-77.481,0.63]],[[-77.481,0.63],[-77.482,0.606]],[[-77.482,0.606],[-77.488,0.599]],[[-77.488,0.599],[-77.489,0.585]],[[-77.489,0.585],[-77.498,0.581]],[[-77.498,0.581],[-77.503,0.576]],[[-77.503,0.576],[-77.504,0.567]],[[-77.504,0.567],[-77.511,0.565]],[[-77.511,0.565],[-77.51,0.559]],[[-77.51,0.559],[-77.512,0.551]],[[-77.512,0.551],[-77.522,0.532]],[[-77.522,0.532],[-77.521,0.525]],[[-77.521,0.525],[-77.523,0.52]],[[-77.523,0.52],[-77.518,0.51]],[[-77.518,0.51],[-77.517,0.494]],[[-77.517,0.494],[-77.519,0.493]],[[-77.519,0.493],[-77.525,0.477]],[[-77.525,0.477],[-77.523,0.466]],[[-77.523,0.466],[-77.519,0.454]],[[-77.519,0.454],[-77.523,0.443]],[[-77.523,0.443],[-77.52,0.437]],[[-77.52,0.437],[-77.523,0.429]],[[-77.523,0.429],[-77.52,0.423]],[[-77.52,0.423],[-77.523,0.415]],[[-77.523,0.415],[-77.53,0.41]],[[-77.53,0.41],[-77.527,0.4]],[[-77.527,0.4],[-77.514,0.405]],[[-77.514,0.405],[-77.504,0.403]],[[-77.504,0.403],[-77.492,0.404]],[[-77.492,0.404],[-77.463,0.399]],[[-77.463,0.399],[-77.453,0.396]],[[-77.453,0.396],[-77.438,0.395]],[[-77.438,0.395],[-77.425,0.392]],[[-77.425,0.392],[-77.408,0.405]],[[-77.408,0.405],[-77.398,0.401]],[[-77.398,0.401],[-77.392,0.394]],[[-77.392,0.394],[-77.39,0.388]],[[-77.39,0.388],[-77.381,0.385]],[[-77.381,0.385],[-77.379,0.389]],[[-77.379,0.389],[-77.383,0.395]],[[-77.383,0.395],[-77.369,0.398]],[[-77.369,0.398],[-77.357,0.396]],[[-77.357,0.396],[-77.35,0.391]],[[-77.35,0.391],[-77.325,0.387]],[[-77.325,0.387],[-77.313,0.38]],[[-77.313,0.38],[-77.311,0.374]],[[-77.311,0.374],[-77.297,0.365]],[[-77.297,0.365],[-77.288,0.363]],[[-77.288,0.363],[-77.278,0.365]],[[-77.278,0.365],[-77.272,0.364]],[[-77.272,0.364],[-77.269,0.368]],[[-77.269,0.368],[-77.261,0.37]],[[-77.261,0.37],[-77.254,0.364]],[[-77.254,0.364],[-77.244,0.361]],[[-77.244,0.361],[-77.24,0.366]],[[-77.24,0.366],[-77.233,0.362]],[[-77.233,0.362],[-77.224,0.365]],[[-77.224,0.365],[-77.214,0.363]],[[-77.214,0.363],[-77.202,0.368]],[[-77.202,0.368],[-77.199,0.374]],[[-77.199,0.374],[-77.188,0.38]],[[-77.188,0.38],[-77.186,0.387]],[[-77.186,0.387],[-77.179,0.39]],[[-77.179,0.39],[-77.164,0.387]],[[-77.164,0.387],[-77.161,0.383]],[[-77.161,0.383],[-77.15,0.376]],[[-77.15,0.376],[-77.136,0.375]],[[-77.136,0.375],[-77.126,0.38]],[[-77.126,0.38],[-77.113,0.373]],[[-77.113,0.373],[-77.113,0.381]],[[-77.113,0.381],[-77.097,0.383]],[[-77.097,0.383],[-77.096,0.395]],[[-77.096,0.395],[-77.089,0.394]],[[-77.089,0.394],[-77.094,0.414]],[[-77.094,0.414],[-77.09,0.42]],[[-77.09,0.42],[-77.089,0.424]],[[-77.089,0.424],[-77.097,0.431]],[[-77.097,0.431],[-77.101,0.427]],[[-77.101,0.427],[-77.105,0.433]],[[-77.105,0.433],[-77.108,0.449]],[[-77.108,0.449],[-77.101,0.464]],[[-77.101,0.464],[-77.105,0.477]],[[-77.105,0.477],[-77.116,0.483]],[[-77.116,0.483],[-77.119,0.498]],[[-77.119,0.498],[-77.125,0.506]],[[-77.125,0.506],[-77.12,0.508]],[[-77.12,0.508],[-77.124,0.516]],[[-77.124,0.516],[-77.128,0.519]],[[-77.128,0.519],[-77.13,0.525]],[[-77.13,0.525],[-77.132,0.54]],[[-77.132,0.54],[-77.126,0.556]],[[-77.126,0.556],[-77.115,0.564]],[[-77.115,0.564],[-77.118,0.567]],[[-77.118,0.567],[-77.12,0.576]],[[-77.12,0.576],[-77.117,0.583]],[[-77.117,0.583],[-77.117,0.59]],[[-77.117,0.59],[-77.128,0.602]],[[-77.128,0.602],[-77.133,0.596]],[[-77.133,0.596],[-77.136,0.603]],[[-77.136,0.603],[-77.156,0.606]],[[-77.156,0.606],[-77.176,0.617]],[[-77.176,0.617],[-77.187,0.631]],[[-78.209,1.005],[-78.202,0.997]],[[-78.202,0.997],[-78.202,0.992]],[[-78.202,0.992],[-78.195,0.984]],[[-78.195,0.984],[-78.195,0.976]],[[-78.195,0.976],[-78.192,0.97]],[[-78.192,0.97],[-78.191,0.96]],[[-78.191,0.96],[-78.197,0.954]],[[-78.197,0.954],[-78.197,0.949]],[[-78.197,0.949],[-78.186,0.938]],[[-78.186,0.938],[-78.177,0.937]],[[-78.177,0.937],[-78.154,0.924]],[[-78.154,0.924],[-78.144,0.926]],[[-78.144,0.926],[-78.142,0.931]],[[-78.142,0.931],[-78.133,0.935]],[[-78.133,0.935],[-78.121,0.936]],[[-78.121,0.936],[-78.108,0.929]],[[-78.108,0.929],[-78.105,0.911]],[[-78.105,0.911],[-78.093,0.902]],[[-78.093,0.902],[-78.089,0.897]],[[-78.089,0.897],[-78.071,0.897]],[[-78.071,0.897],[-78.066,0.89]],[[-78.066,0.89],[-78.054,0.889]],[[-78.054,0.889],[-78.046,0.882]],[[-78.046,0.882],[-78.034,0.88]],[[-78.034,0.88],[-78.022,0.875]],[[-78.022,0.875],[-78.02,0.871]],[[-78.02,0.871],[-78.004,0.859]],[[-78.004,0.859],[-77.991,0.852]],[[-77.991,0.852],[-77.986,0.844]],[[-77.986,0.844],[-77.975,0.834]],[[-77.975,0.834],[-77.967,0.831]],[[-77.967,0.831],[-77.965,0.824]],[[-77.965,0.824],[-77.955,0.824]],[[-77.955,0.824],[-77.941,0.82]],[[-77.941,0.82],[-77.937,0.817]],[[-77.937,0.817],[-77.929,0.819]],[[-77.929,0.819],[-77.922,0.815]],[[-77.922,0.815],[-77.911,0.811]],[[-77.911,0.811],[-77.906,0.812]],[[-77.906,0.812],[-77.891,0.81]],[[-77.891,0.81],[-77.874,0.805]],[[-77.874,0.805],[-77.867,0.802]],[[-77.867,0.802],[-77.847,0.802]],[[-77.847,0.802],[-77.82,0.809]],[[-77.82,0.809],[-77.805,0.831]],[[-77.805,0.831],[-77.789,0.836]],[[-77.789,0.836],[-77.784,0.834]],[[-77.784,0.834],[-77.773,0.84]],[[-77.773,0.84],[-77.765,0.842]],[[-77.765,0.842],[-77.759,0.839]],[[-77.33,1.682],[-77.325,1.697]],[[-77.325,1.697],[-77.321,1.701]],[[-77.321,1.701],[-77.316,1.716]],[[-77.316,1.716],[-77.308,1.728]],[[-77.308,1.728],[-77.305,1.741]],[[-77.305,1.741],[-77.301,1.744]],[[-77.301,1.744],[-77.298,1.753]],[[-77.298,1.753],[-77.301,1.757]],[[-77.301,1.757],[-77.295,1.766]],[[-77.295,1.766],[-77.301,1.781]],[[-77.301,1.781],[-77.308,1.789]],[[-77.308,1.789],[-77.304,1.798]],[[-77.304,1.798],[-77.309,1.801]],[[-77.309,1.801],[-77.301,1.816]],[[-77.301,1.816],[-77.296,1.818]],[[-77.296,1.818],[-77.295,1.832]],[[-78.291,1.138],[-78.291,1.133]],[[-78.291,1.133],[-78.276,1.109]],[[-78.276,1.109],[-78.273,1.114]],[[-78.273,1.114],[-78.266,1.112]],[[-78.266,1.112],[-78.266,1.101]],[[-78.266,1.101],[-78.252,1.094]],[[-78.252,1.094],[-78.252,1.079]],[[-78.252,1.079],[-78.261,1.082]],[[-78.261,1.082],[-78.271,1.075]],[[-78.271,1.075],[-78.277,1.073]],[[-78.277,1.073],[-78.28,1.068]],[[-78.28,1.068],[-78.277,1.062]],[[-78.277,1.062],[-78.281,1.058]],[[-78.281,1.058],[-78.271,1.047]],[[-78.271,1.047],[-78.258,1.041]],[[-78.258,1.041],[-78.254,1.036]],[[-78.254,1.036],[-78.251,1.029]],[[-78.251,1.029],[-78.243,1.029]],[[-78.243,1.029],[-78.238,1.025]],[[-78.238,1.025],[-78.235,1.015]],[[-78.235,1.015],[-78.209,1.005]],[[-78.51,1.189],[-78.506,1.197]],[[-78.506,1.197],[-78.494,1.193]],[[-78.494,1.193],[-78.49,1.186]],[[-78.49,1.186],[-78.48,1.192]],[[-78.48,1.192],[-78.47,1.189]],[[-78.47,1.189],[-78.469,1.181]],[[-78.469,1.181],[-78.462,1.176]],[[-78.462,1.176],[-78.454,1.177]],[[-78.454,1.177],[-78.451,1.184]],[[-78.451,1.184],[-78.446,1.182]],[[-78.446,1.182],[-78.443,1.189]],[[-78.443,1.189],[-78.438,1.191]],[[-78.438,1.191],[-78.43,1.187]],[[-78.43,1.187],[-78.427,1.172]],[[-78.427,1.172],[-78.432,1.167]],[[-78.432,1.167],[-78.438,1.157]],[[-78.438,1.157],[-78.434,1.15]],[[-78.434,1.15],[-78.433,1.144]],[[-78.433,1.144],[-78.428,1.139]],[[-78.428,1.139],[-78.416,1.139]],[[-78.416,1.139],[-78.417,1.149]],[[-78.417,1.149],[-78.425,1.154]],[[-78.425,1.154],[-78.418,1.16]],[[-78.418,1.16],[-78.407,1.16]],[[-78.407,1.16],[-78.403,1.153]],[[-78.403,1.153],[-78.395,1.152]],[[-78.395,1.152],[-78.386,1.159]],[[-78.386,1.159],[-78.382,1.159]],[[-78.382,1.159],[-78.381,1.171]],[[-78.381,1.171],[-78.368,1.176]],[[-78.368,1.176],[-78.36,1.175]],[[-78.36,1.175],[-78.355,1.18]],[[-78.355,1.18],[-78.344,1.183]],[[-78.344,1.183],[-78.336,1.183]],[[-78.336,1.183],[-78.327,1.186]],[[-78.327,1.186],[-78.326,1.195]],[[-78.326,1.195],[-78.315,1.191]],[[-78.315,1.191],[-78.312,1.184]],[[-78.312,1.184],[-78.305,1.179]],[[-78.305,1.179],[-78.305,1.173]],[[-78.305,1.173],[-78.295,1.17]],[[-78.295,1.17],[-78.296,1.157]],[[-78.296,1.157],[-78.299,1.156]],[[-78.299,1.156],[-78.291,1.138]],[[-78.113,2.644],[-78.126,2.64]],[[-78.126,2.64],[-78.137,2.644]],[[-78.137,2.644],[-78.139,2.657]],[[-78.139,2.657],[-78.135,2.663]],[[-78.135,2.663],[-78.143,2.672]],[[-78.143,2.672],[-78.143,2.68]],[[-78.143,2.68],[-78.15,2.684]],[[-78.15,2.684],[-78.159,2.683]],[[-78.159,2.683],[-78.163,2.676]],[[-78.163,2.676],[-78.175,2.675]],[[-78.175,2.675],[-78.184,2.672]],[[-78.184,2.672],[-78.209,2.67]],[[-78.209,2.67],[-78.225,2.667]],[[-77.309,2.125],[-77.312,2.13]],[[-77.312,2.13],[-77.309,2.137]],[[-77.309,2.137],[-77.311,2.142]],[[-77.311,2.142],[-77.305,2.146]],[[-77.305,2.146],[-77.307,2.153]],[[-77.307,2.153],[-77.314,2.166]],[[-77.314,2.166],[-77.317,2.178]],[[-77.317,2.178],[-77.313,2.192]],[[-77.313,2.192],[-77.308,2.195]],[[-77.308,2.195],[-77.311,2.201]],[[-77.311,2.201],[-77.317,2.201]],[[-77.317,2.201],[-77.318,2.209]],[[-77.318,2.209],[-77.323,2.215]],[[-77.323,2.215],[-77.323,2.222]],[[-77.323,2.222],[-77.33,2.23]],[[-77.33,2.23],[-77.341,2.237]],[[-77.341,2.237],[-77.348,2.246]],[[-77.348,2.246],[-77.352,2.257]],[[-77.352,2.257],[-77.36,2.263]],[[-77.36,2.263],[-77.375,2.264]],[[-77.375,2.264],[-77.381,2.257]],[[-77.381,2.257],[-77.387,2.256]],[[-77.387,2.256],[-77.402,2.264]],[[-77.402,2.264],[-77.409,2.271]],[[-77.409,2.271],[-77.417,2.273]],[[-77.417,2.273],[-77.425,2.279]],[[-77.425,2.279],[-77.443,2.285]],[[-77.443,2.285],[-77.459,2.286]],[[-77.459,2.286],[-77.468,2.275]],[[-77.468,2.275],[-77.478,2.275]],[[-77.478,2.275],[-77.48,2.266]],[[-77.48,2.266],[-77.474,2.262]],[[-77.474,2.262],[-77.472,2.241]],[[-77.472,2.241],[-77.479,2.235]],[[-77.479,2.235],[-77.479,2.23]],[[-77.479,2.23],[-77.488,2.216]],[[-77.488,2.216],[-77.485,2.211]],[[-77.485,2.211],[-77.485,2.202]],[[-77.485,2.202],[-77.488,2.195]],[[-77.488,2.195],[-77.502,2.193]],[[-77.502,2.193],[-77.507,2.197]],[[-77.507,2.197],[-77.519,2.2]],[[-77.519,2.2],[-77.53,2.196]],[[-77.53,2.196],[-77.544,2.196]],[[-77.544,2.196],[-77.554,2.202]],[[-77.554,2.202],[-77.564,2.195]],[[-77.564,2.195],[-77.574,2.181]],[[-77.574,2.181],[-77.581,2.179]],[[-77.581,2.179],[-77.595,2.173]],[[-77.595,2.173],[-77.599,2.168]],[[-78.225,2.667],[-78.248,2.663]],[[-78.248,2.663],[-78.26,2.662]],[[-78.26,2.662],[-78.272,2.656]],[[-78.272,2.656],[-78.293,2.656]],[[-78.293,2.656],[-78.303,2.659]],[[-78.303,2.659],[-78.311,2.658]],[[-78.326,2.657],[-78.334,2.656]],[[-78.334,2.656],[-78.351,2.648]],[[-78.351,2.648],[-78.371,2.637]],[[-78.371,2.637],[-78.381,2.627]],[[-78.381,2.627],[-78.391,2.608]],[[-78.391,2.608],[-78.395,2.603]],[[-78.395,2.603],[-78.419,2.603]],[[-78.419,2.603],[-78.437,2.598]],[[-78.437,2.598],[-78.455,2.596]],[[-78.455,2.596],[-78.457,2.589]],[[-78.457,2.589],[-78.451,2.582]],[[-78.451,2.582],[-78.454,2.576]],[[-78.454,2.576],[-78.46,2.574]],[[-78.46,2.574],[-78.469,2.555]],[[-78.469,2.555],[-78.477,2.555]],[[-78.477,2.555],[-78.487,2.548]],[[-78.487,2.548],[-78.502,2.531]],[[-78.502,2.531],[-78.508,2.521]],[[-78.508,2.521],[-78.507,2.508]],[[-78.507,2.508],[-78.516,2.507]],[[-78.516,2.507],[-78.521,2.501]],[[-78.521,2.501],[-78.527,2.506]],[[-78.527,2.506],[-78.542,2.496]],[[-78.542,2.496],[-78.55,2.492]],[[-78.55,2.492],[-78.556,2.464]],[[-78.556,2.464],[-78.556,2.455]],[[-78.556,2.455],[-78.548,2.454]],[[-78.548,2.454],[-78.552,2.447]],[[-78.552,2.447],[-78.557,2.445]],[[-78.557,2.445],[-78.557,2.438]],[[-78.557,2.438],[-78.564,2.433]],[[-78.311,2.658],[-78.326,2.657]],[[-78.701,2.214],[-78.706,2.188]],[[-78.706,2.188],[-78.712,2.176]],[[-78.712,2.176],[-78.713,2.164]],[[-78.713,2.164],[-78.709,2.145]],[[-78.709,2.145],[-78.704,2.119]],[[-78.704,2.119],[-78.691,2.11]],[[-78.691,2.11],[-78.689,2.094]],[[-78.689,2.094],[-78.686,2.087]],[[-78.686,2.087],[-78.681,2.063]],[[-78.681,2.063],[-78.678,2.057]],[[-78.678,2.057],[-78.672,2.056]],[[-78.672,2.056],[-78.665,2.05]],[[-78.665,2.05],[-78.65,2.05]],[[-78.65,2.05],[-78.654,2.044]],[[-78.654,2.044],[-78.665,2.046]],[[-78.665,2.046],[-78.67,2.052]],[[-78.67,2.052],[-78.676,2.049]],[[-78.676,2.049],[-78.671,2.031]],[[-78.671,2.031],[-78.669,2.008]],[[-78.669,2.008],[-78.669,1.991]],[[-78.669,1.991],[-78.673,1.983]],[[-78.673,1.983],[-78.669,1.973]],[[-78.669,1.973],[-78.66,1.975]],[[-78.66,1.975],[-78.659,1.979]],[[-78.659,1.979],[-78.65,1.977]],[[-78.65,1.977],[-78.648,1.988]],[[-78.648,1.988],[-78.635,1.999]],[[-78.635,1.999],[-78.633,2.008]],[[-78.633,2.008],[-78.629,2.01]],[[-78.629,2.01],[-78.624,1.999]],[[-78.624,1.999],[-78.617,1.996]],[[-78.617,1.996],[-78.606,1.996]],[[-78.606,1.996],[-78.599,1.987]],[[-78.599,1.987],[-78.597,1.98]],[[-78.597,1.98],[-78.587,1.972]],[[-78.587,1.972],[-78.589,1.966]],[[-78.589,1.966],[-78.588,1.957]],[[-78.588,1.957],[-78.594,1.955]],[[-78.594,1.955],[-78.602,1.945]],[[-78.602,1.945],[-78.6,1.919]],[[-78.6,1.919],[-78.599,1.9]],[[-78.599,1.9],[-78.597,1.894]],[[-78.597,1.894],[-78.591,1.893]],[[-78.591,1.893],[-78.571,1.901]],[[-78.571,1.901],[-78.557,1.9]],[[-78.557,1.9],[-78.551,1.898]],[[-77.928,2.64],[-77.935,2.638]],[[-77.935,2.638],[-77.934,2.627]],[[-77.934,2.627],[-77.946,2.626]],[[-77.946,2.626],[-77.955,2.635]],[[-77.955,2.635],[-77.965,2.64]],[[-77.965,2.64],[-77.966,2.647]],[[-77.966,2.647],[-77.973,2.661]],[[-77.973,2.661],[-78.004,2.651]],[[-78.004,2.651],[-78.01,2.652]],[[-78.01,2.652],[-78.02,2.644]],[[-78.02,2.644],[-78.036,2.648]],[[-78.036,2.648],[-78.045,2.637]],[[-78.045,2.637],[-78.058,2.617]],[[-78.058,2.617],[-78.064,2.612]],[[-78.064,2.612],[-78.072,2.611]],[[-78.072,2.611],[-78.077,2.625]],[[-78.077,2.625],[-78.081,2.628]],[[-78.081,2.628],[-78.083,2.636]],[[-78.083,2.636],[-78.097,2.647]],[[-78.097,2.647],[-78.103,2.647]],[[-78.103,2.647],[-78.113,2.644]],[[-77.599,2.168],[-77.604,2.165]],[[-77.604,2.165],[-77.619,2.166]],[[-77.619,2.166],[-77.646,2.169]],[[-77.646,2.169],[-77.65,2.167]],[[-77.65,2.167],[-77.663,2.159]],[[-77.663,2.159],[-77.679,2.158]],[[-77.679,2.158],[-77.686,2.155]],[[-77.686,2.155],[-77.699,2.154]],[[-77.699,2.154],[-77.705,2.149]],[[-77.705,2.149],[-77.716,2.145]],[[-77.716,2.145],[-77.734,2.134]],[[-77.734,2.134],[-77.744,2.135]],[[-77.744,2.135],[-77.751,2.141]],[[-77.751,2.141],[-77.781,2.148]],[[-77.781,2.148],[-77.784,2.153]],[[-77.784,2.153],[-77.798,2.164]],[[-77.798,2.164],[-77.801,2.17]],[[-77.801,2.17],[-77.807,2.174]],[[-77.807,2.174],[-77.821,2.178]],[[-77.821,2.178],[-77.836,2.177]],[[-77.836,2.177],[-77.841,2.18]],[[-77.841,2.18],[-77.849,2.191]],[[-77.849,2.191],[-77.853,2.205]],[[-77.853,2.205],[-77.853,2.215]],[[-77.853,2.215],[-77.847,2.232]],[[-77.847,2.232],[-77.85,2.241]],[[-77.85,2.241],[-77.848,2.261]],[[-77.848,2.261],[-77.861,2.268]],[[-77.861,2.268],[-77.866,2.277]],[[-77.866,2.277],[-77.866,2.284]],[[-77.866,2.284],[-77.871,2.291]],[[-77.871,2.291],[-77.874,2.301]],[[-77.874,2.301],[-77.878,2.303]],[[-77.878,2.303],[-77.879,2.313]],[[-77.879,2.313],[-77.884,2.319]],[[-77.884,2.319],[-77.88,2.335]],[[-77.88,2.335],[-77.883,2.353]],[[-77.883,2.353],[-77.89,2.359]],[[-77.89,2.359],[-77.894,2.366]],[[-77.894,2.366],[-77.895,2.375]],[[-77.895,2.375],[-77.899,2.383]],[[-77.899,2.383],[-77.9,2.392]],[[-77.9,2.392],[-77.903,2.397]],[[-77.903,2.397],[-77.912,2.403]],[[-77.912,2.403],[-77.918,2.412]],[[-77.918,2.412],[-77.919,2.437]],[[-77.919,2.437],[-77.918,2.456]],[[-77.918,2.456],[-77.921,2.461]],[[-77.921,2.461],[-77.925,2.482]],[[-77.925,2.482],[-77.926,2.51]],[[-77.926,2.51],[-77.924,2.518]],[[-77.924,2.518],[-77.919,2.523]],[[-77.919,2.523],[-77.915,2.544]],[[-77.915,2.544],[-77.916,2.594]],[[-77.916,2.594],[-77.917,2.605]],[[-77.917,2.605],[-77.924,2.618]],[[-77.924,2.618],[-77.928,2.64]],[[-78.551,1.898],[-78.548,1.886]],[[-78.548,1.886],[-78.544,1.861]],[[-78.544,1.861],[-78.54,1.857]],[[-78.54,1.857],[-78.541,1.85]],[[-78.541,1.85],[-78.545,1.846]],[[-78.545,1.846],[-78.545,1.84]],[[-78.545,1.84],[-78.551,1.835]],[[-78.551,1.835],[-78.549,1.815]],[[-78.549,1.815],[-78.55,1.805]],[[-78.55,1.805],[-78.542,1.802]],[[-78.542,1.802],[-78.55,1.797]],[[-78.55,1.797],[-78.557,1.796]],[[-78.557,1.796],[-78.564,1.793]],[[-78.564,1.793],[-78.56,1.785]],[[-78.56,1.785],[-78.563,1.761]],[[-78.563,1.761],[-78.554,1.758]],[[-78.554,1.758],[-78.562,1.752]],[[-78.562,1.752],[-78.568,1.751]],[[-78.568,1.751],[-78.577,1.774]],[[-78.577,1.774],[-78.586,1.778]],[[-78.586,1.778],[-78.594,1.772]],[[-78.594,1.772],[-78.6,1.774]],[[-78.6,1.774],[-78.6,1.782]],[[-78.6,1.782],[-78.594,1.79]],[[-78.594,1.79],[-78.602,1.794]],[[-78.602,1.794],[-78.637,1.791]],[[-78.637,1.791],[-78.651,1.794]],[[-78.651,1.794],[-78.655,1.787]],[[-78.655,1.787],[-78.66,1.786]],[[-78.66,1.786],[-78.68,1.789]],[[-78.68,1.789],[-78.688,1.782]],[[-78.688,1.782],[-78.683,1.771]],[[-78.683,1.771],[-78.675,1.762]],[[-78.675,1.762],[-78.677,1.754]],[[-78.677,1.754],[-78.68,1.749]],[[-78.68,1.749],[-78.688,1.749]],[[-78.688,1.749],[-78.68,1.759]],[[-78.68,1.759],[-78.691,1.775]],[[-78.691,1.775],[-78.701,1.775]],[[-78.701,1.775],[-78.707,1.778]],[[-78.707,1.778],[-78.715,1.793]],[[-78.715,1.793],[-78.72,1.785]],[[-78.72,1.785],[-78.717,1.769]],[[-78.717,1.769],[-78.719,1.748]],[[-78.719,1.748],[-78.724,1.743]],[[-78.724,1.743],[-78.732,1.749]],[[-78.732,1.749],[-78.726,1.753]],[[-78.726,1.753],[-78.727,1.766]],[[-78.727,1.766],[-78.731,1.778]],[[-78.731,1.778],[-78.735,1.782]],[[-78.735,1.782],[-78.738,1.797]],[[-78.738,1.797],[-78.743,1.796]],[[-78.743,1.796],[-78.751,1.801]],[[-78.751,1.801],[-78.756,1.798]],[[-78.756,1.798],[-78.76,1.789]],[[-78.76,1.789],[-78.776,1.789]],[[-78.776,1.789],[-78.781,1.794]],[[-78.781,1.794],[-78.78,1.803]],[[-78.78,1.803],[-78.765,1.804]],[[-78.765,1.804],[-78.761,1.811]],[[-78.761,1.811],[-78.76,1.82]],[[-78.76,1.82],[-78.754,1.817]],[[-78.754,1.817],[-78.756,1.81]],[[-78.756,1.81],[-78.754,1.806]],[[-78.754,1.806],[-78.738,1.809]],[[-78.738,1.809],[-78.734,1.818]],[[-78.734,1.818],[-78.723,1.825]],[[-78.723,1.825],[-78.731,1.83]],[[-78.731,1.83],[-78.739,1.828]],[[-78.739,1.828],[-78.746,1.822]],[[-78.746,1.822],[-78.764,1.817]],[[-78.764,1.817],[-78.776,1.808]],[[-78.776,1.808],[-78.784,1.807]],[[-78.784,1.807],[-78.788,1.801]],[[-78.788,1.801],[-78.796,1.806]],[[-78.796,1.806],[-78.81,1.79]],[[-78.81,1.79],[-78.807,1.803]],[[-78.807,1.803],[-78.8,1.815]],[[-78.8,1.815],[-78.793,1.819]],[[-78.793,1.819],[-78.785,1.819]],[[-78.785,1.819],[-78.78,1.825]],[[-78.78,1.825],[-78.785,1.828]],[[-78.785,1.828],[-78.81,1.829]],[[-78.81,1.829],[-78.827,1.824]],[[-78.827,1.824],[-78.853,1.807]],[[-78.853,1.807],[-78.861,1.807]],[[-78.861,1.807],[-78.874,1.794]],[[-78.874,1.794],[-78.889,1.773]],[[-78.889,1.773],[-78.914,1.751]],[[-78.914,1.751],[-78.925,1.741]],[[-78.925,1.741],[-78.94,1.722]],[[-78.94,1.722],[-78.953,1.699]],[[-78.953,1.699],[-78.954,1.684]],[[-78.954,1.684],[-78.962,1.688]],[[-78.962,1.688],[-78.976,1.675]],[[-78.976,1.675],[-78.991,1.669]],[[-78.991,1.669],[-79.007,1.658]],[[-79.007,1.658],[-79.009,1.649]],[[-79.009,1.649],[-79.005,1.644]],[[-79.005,1.644],[-78.999,1.644]],[[-78.999,1.644],[-79.001,1.636]],[[-79.001,1.636],[-79.009,1.633]],[[-79.009,1.633],[-79.002,1.626]],[[-79.002,1.626],[-78.997,1.611]],[[-78.997,1.611],[-78.989,1.601]],[[-78.989,1.601],[-78.981,1.598]],[[-78.981,1.598],[-78.972,1.6]],[[-78.972,1.6],[-78.959,1.594]],[[-78.959,1.594],[-78.944,1.581]],[[-78.944,1.581],[-78.932,1.563]],[[-78.932,1.563],[-78.92,1.556]],[[-78.92,1.556],[-78.914,1.561]],[[-78.914,1.561],[-78.902,1.543]],[[-78.902,1.543],[-78.893,1.544]],[[-78.893,1.544],[-78.885,1.553]],[[-78.885,1.553],[-78.871,1.555]],[[-78.871,1.555],[-78.864,1.551]],[[-78.864,1.551],[-78.866,1.545]],[[-78.866,1.545],[-78.874,1.548]],[[-78.874,1.548],[-78.875,1.541]],[[-78.875,1.541],[-78.87,1.537]],[[-78.87,1.537],[-78.867,1.524]],[[-78.867,1.524],[-78.874,1.523]],[[-78.874,1.523],[-78.875,1.515]],[[-78.875,1.515],[-78.87,1.499]],[[-78.87,1.499],[-78.865,1.491]],[[-78.865,1.491],[-78.856,1.481]],[[-78.856,1.481],[-78.849,1.476]],[[-78.849,1.476],[-78.839,1.479]],[[-78.839,1.479],[-78.819,1.473]],[[-78.819,1.473],[-78.812,1.48]],[[-78.812,1.48],[-78.803,1.481]],[[-78.803,1.481],[-78.815,1.467]],[[-78.815,1.467],[-78.823,1.465]],[[-78.823,1.465],[-78.834,1.457]],[[-78.834,1.457],[-78.833,1.45]],[[-78.833,1.45],[-78.82,1.45]],[[-78.82,1.45],[-78.816,1.459]],[[-78.816,1.459],[-78.811,1.453]],[[-78.811,1.453],[-78.818,1.446]],[[-78.818,1.446],[-78.815,1.434]],[[-78.815,1.434],[-78.798,1.427]],[[-78.798,1.427],[-78.791,1.408]],[[-78.791,1.408],[-78.78,1.41]],[[-78.78,1.41],[-78.777,1.405]],[[-78.777,1.405],[-78.779,1.393]],[[-78.779,1.393],[-78.774,1.391]],[[-78.774,1.391],[-78.76,1.395]],[[-78.76,1.395],[-78.752,1.388]],[[-78.752,1.388],[-78.747,1.379]],[[-78.747,1.379],[-78.741,1.377]],[[-78.741,1.377],[-78.731,1.368]],[[-78.731,1.368],[-78.72,1.369]],[[-78.72,1.369],[-78.718,1.364]],[[-78.718,1.364],[-78.71,1.359]],[[-78.71,1.359],[-78.704,1.35]],[[-78.704,1.35],[-78.703,1.34]],[[-78.703,1.34],[-78.695,1.334]],[[-78.695,1.334],[-78.682,1.331]],[[-78.682,1.331],[-78.67,1.32]],[[-78.67,1.32],[-78.661,1.32]],[[-78.661,1.32],[-78.662,1.312]],[[-78.662,1.312],[-78.654,1.298]],[[-78.654,1.298],[-78.653,1.292]],[[-78.653,1.292],[-78.647,1.289]],[[-78.647,1.289],[-78.649,1.277]],[[-78.649,1.277],[-78.641,1.268]],[[-78.641,1.268],[-78.635,1.268]],[[-78.635,1.268],[-78.627,1.261]],[[-78.627,1.261],[-78.622,1.251]],[[-78.622,1.251],[-78.614,1.247]],[[-78.614,1.247],[-78.605,1.246]],[[-78.605,1.246],[-78.591,1.24]],[[-78.591,1.24],[-78.588,1.243]],[[-78.588,1.243],[-78.551,1.243]],[[-78.551,1.243],[-78.545,1.244]],[[-78.545,1.244],[-78.542,1.229]],[[-78.542,1.229],[-78.523,1.221]],[[-78.523,1.221],[-78.522,1.215]],[[-78.522,1.215],[-78.514,1.212]],[[-78.514,1.212],[-78.516,1.205]],[[-78.516,1.205],[-78.513,1.197]],[[-78.513,1.197],[-78.517,1.19]],[[-78.517,1.19],[-78.51,1.189]],[[-78.564,2.433],[-78.57,2.443]],[[-78.57,2.443],[-78.574,2.444]],[[-78.574,2.444],[-78.6,2.403]],[[-78.6,2.403],[-78.618,2.382]],[[-78.618,2.382],[-78.624,2.372]],[[-78.624,2.372],[-78.627,2.345]],[[-78.627,2.345],[-78.631,2.334]],[[-78.631,2.334],[-78.625,2.331]],[[-78.625,2.331],[-78.628,2.32]],[[-78.628,2.32],[-78.634,2.313]],[[-78.634,2.313],[-78.639,2.312]],[[-78.639,2.312],[-78.652,2.294]],[[-78.652,2.294],[-78.661,2.287]],[[-78.661,2.287],[-78.664,2.28]],[[-78.664,2.28],[-78.665,2.27]],[[-78.665,2.27],[-78.662,2.261]],[[-78.662,2.261],[-78.673,2.241]],[[-78.673,2.241],[-78.682,2.246]],[[-78.682,2.246],[-78.688,2.233]],[[-78.688,2.233],[-78.697,2.23]],[[-78.697,2.23],[-78.693,2.222]],[[-78.693,2.222],[-78.701,2.214]]]}}