{"type":"FeatureCollection","features":[{"type":"Feature","properties":{},"geometry":{"type":"Polygon","coordinates":[[[-77.467,1.363],[-77.48,1.369],[-77.485,1.35],[-77.504,1.333],[-77.514,1.294],[-77.506,1.264],[-77.446,1.256],[-77.41,1.231],[-77.388,1.226],[-77.375,1.231],[-77.417,1.291],[-77.453,1.307],[-77.467,1.363]]]}},{"type":"Feature","properties":{},"geometry":{"type":"Polygon","coordinates":[[[-76.932,1.501],[-76.952,1.526],[-76.973,1.531],[-76.979,1.544],[-76.993,1.54],[-77.012,1.573],[-77.02,1.575],[-77.031,1.565],[-77.041,1.567],[-77.063,1.554],[-77.057,1.54],[-77.072,1.515],[-77.061,1.513],[-77.063,1.495],[-77.042,1.488],[-77.026,1.505],[-77.019,1.496],[-76.994,1.518],[-76.951,1.515],[-76.932,1.501]]]}},{"type":"Feature","properties":{},"geometry":{"type":"Polygon","coordinates":[[[-77.237,1.658],[-77.245,1.658],[-77.256,1.671],[-77.27,1.663],[-77.26,1.656],[-77.257,1.631],[-77.259,1.575],[-77.266,1.555],[-77.259,1.544],[-77.302,1.518],[-77.297,1.499],[-77.276,1.492],[-77.277,1.483],[-77.263,1.466],[-77.25,1.469],[-77.246,1.456],[-77.235,1.452],[-77.184,1.448],[-77.161,1.46],[-77.159,1.512],[-77.146,1.528],[-77.178,1.611],[-77.202,1.63],[-77.214,1.631],[-77.211,1.652],[-77.237,1.658]]]}},{"type":"Feature","properties":{},"geometry":{"type":"Polygon","coordinates":[[[-77.187,0.631],[-77.212,0.642],[-77.24,0.683],[-77.263,0.696],[-77.336,0.701],[-77.347,0.72],[-77.363,0.719],[-77.37,0.75],[-77.385,0.752],[-77.445,0.796],[-77.475,0.792],[-77.473,0.805],[-77.498,0.829],[-77.528,0.822],[-77.548,0.825],[-77.557,0.841],[-77.579,0.807],[-77.607,0.8],[-77.613,0.79],[-77.603,0.784],[-77.642,0.729],[-77.577,0.728],[-77.516,0.756],[-77.484,0.757],[-77.461,0.744],[-77.436,0.711],[-77.435,0.698],[-77.428,0.694],[-77.428,0.669],[-77.407,0.664],[-77.403,0.653],[-77.38,0.636],[-77.386,0.627],[-77.187,0.631]]]}},{"type":"Feature","properties":{},"geometry":{"type":"Polygon","coordinates":[[[-76.9,1.662],[-76.917,1.702],[-76.936,1.729],[-76.96,1.722],[-76.969,1.712],[-76.988,1.715],[-77.001,1.707],[-77.027,1.714],[-77.046,1.698],[-77.055,1.701],[-77.07,1.674],[-77.069,1.665],[-77.042,1.672],[-77.025,1.66],[-76.979,1.659],[-76.967,1.646],[-76.962,1.629],[-76.94,1.635],[-76.9,1.662]]]}},{"type":"Feature","properties":{},"geometry":{"type":"Polygon","coordinates":[[[-77.573,1.19],[-77.581,1.203],[-77.578,1.225],[-77.588,1.263],[-77.609,1.307],[-77.615,1.289],[-77.609,1.284],[-77.609,1.259],[-77.622,1.234],[-77.622,1.222],[-77.611,1.2],[-77.579,1.171],[-77.573,1.19]]]}},{"type":"Feature","properties":{},"geometry":{"type":"Polygon","coordinates":[[[-77.063,1.554],[-77.091,1.549],[-77.097,1.579],[-77.117,1.59],[-77.119,1.567],[-77.14,1.551],[-77.148,1.53],[-77.131,1.527],[-77.119,1.515],[-77.119,1.5],[-77.091,1.499],[-77.082,1.487],[-77.057,1.54],[-77.063,1.554]]]}},{"type":"Feature","properties":{},"geometry":{"type":"Polygon","coordinates":[[[-77.159,0.744],[-77.185,0.752],[-77.211,0.787],[-77.218,0.811],[-77.215,0.843],[-77.228,0.861],[-77.229,0.886],[-77.265,0.874],[-77.338,0.89],[-77.353,0.89],[-77.382,0.879],[-77.398,0.893],[-77.436,0.886],[-77.481,0.928],[-77.517,0.918],[-77.542,0.892],[-77.537,0.887],[-77.522,0.886],[-77.519,0.877],[-77.51,0.874],[-77.503,0.856],[-77.486,0.843],[-77.463,0.846],[-77.439,0.837],[-77.431,0.847],[-77.406,0.849],[-77.386,0.841],[-77.384,0.829],[-77.351,0.818],[-77.323,0.795],[-77.319,0.801],[-77.298,0.799],[-77.283,0.755],[-77.273,0.756],[-77.254,0.74],[-77.239,0.738],[-77.177,0.671],[-77.159,0.744]]]}},{"type":"Feature","properties":{},"geometry":{"type":"Polygon","coordinates":[[[-77.614,1.297],[-77.641,1.31],[-77.646,1.337],[-77.66,1.348],[-77.671,1.351],[-77.684,1.345],[-77.709,1.358],[-77.735,1.396],[-77.76,1.394],[-77.781,1.418],[-77.794,1.422],[-77.796,1.437],[-77.811,1.454],[-77.815,1.451],[-77.84,1.463],[-77.837,1.452],[-77.845,1.448],[-77.836,1.431],[-77.84,1.42],[-77.826,1.421],[-77.826,1.414],[-77.847,1.4],[-77.843,1.358],[-77.853,1.301],[-77.863,1.299],[-77.863,1.29],[-77.856,1.283],[-77.835,1.282],[-77.837,1.25],[-77.843,1.242],[-77.835,1.237],[-77.816,1.241],[-77.794,1.228],[-77.767,1.197],[-77.756,1.163],[-77.723,1.166],[-77.716,1.121],[-77.723,1.109],[-77.715,1.091],[-77.699,1.093],[-77.688,1.123],[-77.662,1.155],[-77.658,1.2],[-77.663,1.22],[-77.644,1.26],[-77.623,1.275],[-77.614,1.297]]]}},{"type":"Feature","properties":{},"geometry":{"type":"Polygon","coordinates":[[[-77.595,0.993],[-77.614,0.994],[-77.615,0.987],[-77.63,0.978],[-77.656,0.979],[-77.676,0.964],[-77.669,0.95],[-77.686,0.913],[-77.679,0.9],[-77.688,0.894],[-77.685,0.867],[-77.678,0.862],[-77.672,0.868],[-77.647,0.867],[-77.641,0.859],[-77.615,0.856],[-77.605,0.844],[-77.597,0.844],[-77.589,0.866],[-77.592,0.882],[-77.568,0.89],[-77.57,0.896],[-77.597,0.906],[-77.594,0.913],[-77.61,0.934],[-77.611,0.943],[-77.59,0.961],[-77.595,0.993]]]}},{"type":"Feature","properties":{},"geometry":{"type":"Polygon","coordinates":[[[-77.55,1.433],[-77.579,1.43],[-77.607,1.47],[-77.611,1.503],[-77.645,1.529],[-77.694,1.53],[-77.692,1.522],[-77.706,1.509],[-77.721,1.509],[-77.723,1.503],[-77.737,1.51],[-77.741,1.529],[-77.753,1.526],[-77.758,1.533],[-77.752,1.536],[-77.755,1.545],[-77.765,1.544],[-77.768,1.536],[-77.78,1.532],[-77.804,1.557],[-77.796,1.567],[-77.804,1.583],[-77.82,1.594],[-77.835,1.589],[-77.843,1.595],[-77.851,1.587],[-77.848,1.577],[-77.854,1.56],[-77.839,1.558],[-77.855,1.539],[-77.85,1.535],[-77.856,1.514],[-77.881,1.505],[-77.886,1.494],[-77.868,1.483],[-77.867,1.475],[-77.848,1.457],[-77.84,1.463],[-77.815,1.451],[-77.811,1.454],[-77.796,1.437],[-77.794,1.422],[-77.781,1.418],[-77.76,1.394],[-77.735,1.396],[-77.709,1.358],[-77.684,1.345],[-77.671,1.351],[-77.66,1.348],[-77.646,1.337],[-77.641,1.31],[-77.635,1.305],[-77.614,1.297],[-77.609,1.307],[-77.604,1.304],[-77.588,1.263],[-77.578,1.225],[-77.581,1.203],[-77.573,1.19],[-77.538,1.305],[-77.56,1.331],[-77.549,1.347],[-77.571,1.357],[-77.573,1.365],[-77.565,1.411],[-77.55,1.433]]]}},{"type":"Feature","properties":{},"geometry":{"type":"Polygon","coordinates":[[[-77.375,1.231],[-77.388,1.226],[-77.41,1.231],[-77.446,1.256],[-77.506,1.264],[-77.509,1.253],[-77.501,1.219],[-77.477,1.18],[-77.479,1.156],[-77.457,1.159],[-77.441,1.153],[-77.423,1.16],[-77.393,1.181],[-77.389,1.19],[-77.362,1.202],[-77.356,1.21],[-77.359,1.221],[-77.375,1.231]]]}},{"type":"Feature","properties":{},"geometry":{"type":"Polygon","coordinates":[[[-77.47,0.948],[-77.489,0.954],[-77.493,0.947],[-77.516,0.945],[-77.553,0.959],[-77.576,0.956],[-77.562,0.935],[-77.562,0.918],[-77.538,0.896],[-77.517,0.918],[-77.497,0.927],[-77.486,0.923],[-77.47,0.941],[-77.47,0.948]]]}},{"type":"Feature","properties":{},"geometry":{"type":"Polygon","coordinates":[[[-77.542,0.892],[-77.559,0.874],[-77.557,0.841],[-77.548,0.825],[-77.528,0.822],[-77.498,0.829],[-77.473,0.805],[-77.475,0.792],[-77.445,0.796],[-77.385,0.752],[-77.37,0.75],[-77.363,0.719],[-77.347,0.72],[-77.336,0.701],[-77.263,0.696],[-77.24,0.683],[-77.212,0.642],[-77.187,0.631],[-77.177,0.671],[-77.182,0.68],[-77.219,0.711],[-77.239,0.738],[-77.254,0.74],[-77.273,0.756],[-77.283,0.755],[-77.298,0.799],[-77.319,0.801],[-77.323,0.795],[-77.351,0.818],[-77.384,0.829],[-77.386,0.841],[-77.406,0.849],[-77.431,0.847],[-77.439,0.837],[-77.463,0.846],[-77.486,0.843],[-77.503,0.856],[-77.51,0.874],[-77.519,0.877],[-77.522,0.886],[-77.537,0.887],[-77.542,0.892]]]}},{"type":"Feature","properties":{},"geometry":{"type":"Polygon","coordinates":[[[-77.31,1.353],[-77.344,1.346],[-77.356,1.331],[-77.381,1.317],[-77.376,1.306],[-77.347,1.313],[-77.329,1.301],[-77.331,1.285],[-77.355,1.255],[-77.356,1.21],[-77.362,1.197],[-77.333,1.145],[-77.319,1.142],[-77.31,1.133],[-77.306,1.105],[-77.317,1.087],[-77.305,1.068],[-77.285,1.052],[-77.295,1.036],[-77.296,0.99],[-77.318,0.962],[-77.284,0.939],[-77.282,0.931],[-77.261,0.932],[-77.253,0.923],[-77.246,0.926],[-77.22,0.901],[-77.207,0.901],[-77.199,0.881],[-77.183,0.864],[-77.17,0.865],[-77.165,0.849],[-77.15,0.842],[-77.139,0.822],[-77.118,0.827],[-77.102,0.833],[-77.118,0.858],[-77.121,0.892],[-77.118,0.901],[-77.091,0.914],[-77.08,0.941],[-77.073,0.942],[-77.079,0.962],[-77.072,0.971],[-77.046,0.979],[-77.039,0.993],[-77.028,0.995],[-77.027,1.013],[-77.039,1.039],[-77.037,1.047],[-77.06,1.035],[-77.067,1.042],[-77.068,1.06],[-77.084,1.062],[-77.093,1.075],[-77.097,1.103],[-77.092,1.118],[-77.102,1.142],[-77.097,1.163],[-77.086,1.174],[-77.089,1.182],[-77.116,1.195],[-77.12,1.213],[-77.143,1.206],[-77.182,1.226],[-77.193,1.233],[-77.198,1.254],[-77.223,1.251],[-77.235,1.259],[-77.256,1.296],[-77.277,1.306],[-77.283,1.296],[-77.289,1.299],[-77.31,1.325],[-77.31,1.353]]]}},{"type":"Feature","properties":{},"geometry":{"type":"Polygon","coordinates":[[[-77.019,1.496],[-77.026,1.505],[-77.042,1.488],[-77.063,1.495],[-77.061,1.513],[-77.072,1.515],[-77.09,1.472],[-77.11,1.443],[-77.089,1.433],[-77.07,1.436],[-77.019,1.496]]]}},{"type":"Feature","properties":{},"geometry":{"type":"Polygon","coordinates":[[[-77.676,0.964],[-77.69,0.976],[-77.703,0.951],[-77.714,0.951],[-77.727,0.918],[-77.712,0.897],[-77.714,0.881],[-77.692,0.862],[-77.684,0.838],[-77.676,0.843],[-77.677,0.853],[-77.668,0.861],[-77.685,0.867],[-77.688,0.894],[-77.679,0.9],[-77.686,0.913],[-77.669,0.95],[-77.676,0.964]]]}},{"type":"Feature","properties":{},"geometry":{"type":"Polygon","coordinates":[[[-77.725,0.91],[-77.737,0.911],[-77.743,0.922],[-77.754,0.913],[-77.774,0.918],[-77.767,0.892],[-77.779,0.891],[-77.779,0.884],[-77.761,0.867],[-77.753,0.848],[-77.759,0.839],[-77.747,0.833],[-77.713,0.851],[-77.684,0.828],[-77.692,0.862],[-77.707,0.871],[-77.714,0.881],[-77.712,0.897],[-77.725,0.91]]]}},{"type":"Feature","properties":{},"geometry":{"type":"Polygon","coordinates":[[[-77.504,1.317],[-77.533,1.314],[-77.544,1.297],[-77.556,1.242],[-77.567,1.225],[-77.568,1.208],[-77.54,1.184],[-77.525,1.187],[-77.501,1.219],[-77.514,1.294],[-77.504,1.317]]]}},{"type":"Feature","properties":{},"geometry":{"type":"Polygon","coordinates":[[[-77.082,1.487],[-77.091,1.499],[-77.119,1.5],[-77.119,1.515],[-77.131,1.527],[-77.149,1.527],[-77.159,1.512],[-77.161,1.46],[-77.184,1.448],[-77.167,1.444],[-77.143,1.45],[-77.135,1.436],[-77.11,1.443],[-77.082,1.487]]]}},{"type":"Feature","properties":{},"geometry":{"type":"Polygon","coordinates":[[[-77.015,1.617],[-77.034,1.609],[-77.039,1.618],[-77.055,1.618],[-77.074,1.635],[-77.08,1.627],[-77.067,1.617],[-77.065,1.601],[-77.049,1.594],[-77.053,1.586],[-77.079,1.594],[-77.079,1.569],[-77.063,1.554],[-77.041,1.567],[-77.031,1.565],[-77.02,1.575],[-77.012,1.573],[-76.999,1.608],[-77.015,1.617]]]}},{"type":"Feature","properties":{},"geometry":{"type":"Polygon","coordinates":[[[-77.184,1.448],[-77.235,1.452],[-77.239,1.439],[-77.251,1.437],[-77.253,1.43],[-77.25,1.401],[-77.237,1.395],[-77.22,1.37],[-77.22,1.341],[-77.227,1.339],[-77.235,1.309],[-77.25,1.289],[-77.235,1.259],[-77.223,1.251],[-77.198,1.254],[-77.193,1.233],[-77.182,1.226],[-77.143,1.206],[-77.12,1.213],[-77.116,1.195],[-77.089,1.182],[-77.069,1.185],[-77.04,1.202],[-77.021,1.196],[-77.013,1.206],[-76.981,1.223],[-76.971,1.253],[-76.983,1.267],[-76.979,1.287],[-76.972,1.293],[-76.961,1.284],[-76.964,1.277],[-76.94,1.273],[-76.933,1.285],[-76.951,1.294],[-76.966,1.316],[-76.979,1.315],[-76.98,1.303],[-76.998,1.299],[-77.008,1.323],[-77.022,1.335],[-77.034,1.359],[-77.035,1.375],[-77.076,1.414],[-77.085,1.412],[-77.102,1.422],[-77.11,1.443],[-77.135,1.436],[-77.143,1.45],[-77.167,1.444],[-77.184,1.448]]]}},{"type":"Feature","properties":{},"geometry":{"type":"Polygon","coordinates":[[[-76.985,1.657],[-77.025,1.66],[-77.042,1.672],[-77.051,1.672],[-77.092,1.652],[-77.102,1.636],[-77.082,1.607],[-77.079,1.594],[-77.053,1.586],[-77.049,1.594],[-77.065,1.601],[-77.067,1.617],[-77.08,1.627],[-77.074,1.635],[-77.055,1.618],[-77.039,1.618],[-77.034,1.609],[-77.022,1.61],[-76.992,1.64],[-76.985,1.657]]]}},{"type":"Feature","properties":{},"geometry":{"type":"Polygon","coordinates":[[[-77.359,1.221],[-77.35,1.267],[-77.331,1.285],[-77.329,1.301],[-77.347,1.313],[-77.376,1.306],[-77.368,1.292],[-77.368,1.242],[-77.359,1.221]]]}},{"type":"Feature","properties":{},"geometry":{"type":"Polygon","coordinates":[[[-77.497,1.024],[-77.515,1.045],[-77.512,1.063],[-77.535,1.061],[-77.559,1.072],[-77.571,1.068],[-77.586,1.046],[-77.599,0.995],[-77.589,0.987],[-77.573,0.989],[-77.558,1.001],[-77.518,1.007],[-77.497,1.024]]]}},{"type":"Feature","properties":{},"geometry":{"type":"Polygon","coordinates":[[[-77.699,1.093],[-77.715,1.091],[-77.722,1.098],[-77.733,1.072],[-77.763,1.062],[-77.755,1.045],[-77.764,1.04],[-77.734,1.017],[-77.728,1.001],[-77.706,0.985],[-77.695,0.994],[-77.689,1.011],[-77.675,1.018],[-77.663,1.006],[-77.648,1.004],[-77.623,1.01],[-77.614,0.994],[-77.595,0.993],[-77.599,0.995],[-77.581,1.055],[-77.609,1.054],[-77.643,1.037],[-77.696,1.072],[-77.699,1.093]]]}},{"type":"Feature","properties":{},"geometry":{"type":"Polygon","coordinates":[[[-77.27,1.663],[-77.279,1.664],[-77.283,1.673],[-77.288,1.668],[-77.33,1.682],[-77.34,1.67],[-77.355,1.669],[-77.374,1.631],[-77.389,1.619],[-77.396,1.606],[-77.391,1.596],[-77.401,1.584],[-77.394,1.56],[-77.399,1.548],[-77.39,1.531],[-77.352,1.515],[-77.349,1.509],[-77.336,1.512],[-77.322,1.5],[-77.31,1.519],[-77.293,1.522],[-77.28,1.534],[-77.263,1.539],[-77.257,1.619],[-77.26,1.656],[-77.27,1.663]]]}},{"type":"Feature","properties":{},"geometry":{"type":"Polygon","coordinates":[[[-77.318,0.962],[-77.296,0.99],[-77.295,1.036],[-77.285,1.052],[-77.305,1.068],[-77.317,1.087],[-77.306,1.105],[-77.31,1.133],[-77.319,1.142],[-77.333,1.145],[-77.358,1.187],[-77.362,1.202],[-77.379,1.192],[-77.369,1.172],[-77.365,1.136],[-77.405,1.105],[-77.427,1.072],[-77.428,1.054],[-77.408,1.027],[-77.371,1.023],[-77.37,1.006],[-77.356,0.985],[-77.355,0.968],[-77.349,0.973],[-77.34,0.949],[-77.322,0.952],[-77.318,0.962]]]}},{"type":"Feature","properties":{},"geometry":{"type":"Polygon","coordinates":[[[-77.302,1.518],[-77.31,1.519],[-77.322,1.5],[-77.3,1.488],[-77.293,1.475],[-77.299,1.465],[-77.292,1.452],[-77.301,1.433],[-77.298,1.383],[-77.291,1.37],[-77.31,1.353],[-77.31,1.325],[-77.289,1.299],[-77.283,1.296],[-77.277,1.306],[-77.25,1.289],[-77.235,1.309],[-77.227,1.339],[-77.22,1.341],[-77.22,1.37],[-77.237,1.395],[-77.25,1.401],[-77.254,1.413],[-77.251,1.437],[-77.239,1.439],[-77.235,1.452],[-77.246,1.456],[-77.25,1.469],[-77.263,1.466],[-77.277,1.483],[-77.276,1.492],[-77.297,1.499],[-77.302,1.518]]]}},{"type":"Feature","properties":{},"geometry":{"type":"Polygon","coordinates":[[[-77.385,1.528],[-77.399,1.548],[-77.394,1.56],[-77.401,1.584],[-77.391,1.596],[-77.396,1.606],[-77.425,1.593],[-77.437,1.595],[-77.446,1.588],[-77.437,1.562],[-77.439,1.549],[-77.474,1.505],[-77.482,1.472],[-77.488,1.467],[-77.483,1.455],[-77.455,1.442],[-77.448,1.448],[-77.422,1.445],[-77.419,1.464],[-77.412,1.458],[-77.392,1.474],[-77.387,1.486],[-77.394,1.515],[-77.385,1.528]]]}},{"type":"Feature","properties":{},"geometry":{"type":"Polygon","coordinates":[[[-76.932,1.501],[-76.951,1.515],[-76.994,1.518],[-77.046,1.468],[-77.07,1.436],[-77.105,1.436],[-77.102,1.422],[-77.085,1.412],[-77.076,1.414],[-77.035,1.375],[-77.034,1.359],[-77.022,1.335],[-77.008,1.323],[-76.998,1.299],[-76.98,1.303],[-76.979,1.315],[-76.966,1.316],[-76.951,1.294],[-76.933,1.285],[-76.925,1.303],[-76.904,1.321],[-76.922,1.338],[-76.932,1.386],[-76.932,1.4],[-76.918,1.43],[-76.932,1.501]]]}},{"type":"Feature","properties":{},"geometry":{"type":"Polygon","coordinates":[[[-77.579,1.171],[-77.611,1.2],[-77.622,1.222],[-77.622,1.234],[-77.609,1.259],[-77.609,1.284],[-77.615,1.289],[-77.623,1.275],[-77.644,1.26],[-77.663,1.22],[-77.658,1.2],[-77.662,1.155],[-77.688,1.123],[-77.699,1.093],[-77.696,1.072],[-77.643,1.037],[-77.609,1.054],[-77.581,1.055],[-77.571,1.068],[-77.559,1.072],[-77.586,1.113],[-77.591,1.135],[-77.581,1.15],[-77.579,1.171]]]}},{"type":"Feature","properties":{},"geometry":{"type":"Polygon","coordinates":[[[-77.483,1.455],[-77.488,1.467],[-77.482,1.472],[-77.474,1.505],[-77.502,1.492],[-77.51,1.469],[-77.531,1.447],[-77.547,1.442],[-77.565,1.411],[-77.571,1.357],[-77.549,1.347],[-77.56,1.331],[-77.538,1.305],[-77.533,1.314],[-77.504,1.317],[-77.504,1.333],[-77.483,1.355],[-77.481,1.379],[-77.487,1.399],[-77.481,1.415],[-77.489,1.429],[-77.483,1.455]]]}},{"type":"Feature","properties":{},"geometry":{"type":"Polygon","coordinates":[[[-77.428,1.054],[-77.427,1.072],[-77.405,1.105],[-77.365,1.136],[-77.369,1.172],[-77.379,1.192],[-77.389,1.19],[-77.393,1.181],[-77.423,1.16],[-77.441,1.153],[-77.457,1.159],[-77.479,1.156],[-77.473,1.146],[-77.473,1.13],[-77.479,1.124],[-77.475,1.092],[-77.456,1.084],[-77.448,1.055],[-77.428,1.054]]]}},{"type":"Feature","properties":{},"geometry":{"type":"Polygon","coordinates":[[[-77.722,1.098],[-77.716,1.121],[-77.723,1.166],[-77.756,1.163],[-77.767,1.197],[-77.794,1.228],[-77.816,1.241],[-77.835,1.237],[-77.843,1.242],[-77.837,1.25],[-77.835,1.282],[-77.856,1.283],[-77.863,1.29],[-77.863,1.299],[-77.853,1.301],[-77.843,1.358],[-77.846,1.379],[-77.853,1.362],[-77.869,1.351],[-77.881,1.329],[-77.898,1.313],[-77.91,1.317],[-77.915,1.311],[-77.91,1.305],[-77.911,1.283],[-77.903,1.284],[-77.892,1.257],[-77.928,1.242],[-77.942,1.231],[-77.948,1.217],[-77.969,1.212],[-77.977,1.199],[-77.963,1.165],[-77.952,1.156],[-77.955,1.145],[-77.941,1.12],[-77.952,1.104],[-77.933,1.099],[-77.917,1.085],[-77.917,1.073],[-77.904,1.058],[-77.887,1.05],[-77.855,1.047],[-77.848,1.03],[-77.84,1.024],[-77.825,1.028],[-77.82,1.013],[-77.799,0.999],[-77.781,1.027],[-77.755,1.045],[-77.763,1.062],[-77.733,1.072],[-77.722,1.098]]]}},{"type":"Feature","properties":{},"geometry":{"type":"Polygon","coordinates":[[[-76.853,1.636],[-76.877,1.646],[-76.895,1.664],[-76.94,1.635],[-76.962,1.629],[-76.974,1.656],[-76.985,1.657],[-76.992,1.64],[-77.015,1.617],[-76.999,1.608],[-77.012,1.573],[-77.005,1.557],[-76.993,1.54],[-76.979,1.544],[-76.973,1.531],[-76.952,1.526],[-76.932,1.501],[-76.913,1.501],[-76.888,1.523],[-76.859,1.522],[-76.851,1.535],[-76.857,1.565],[-76.834,1.607],[-76.853,1.636]]]}},{"type":"Feature","properties":{},"geometry":{"type":"Polygon","coordinates":[[[-77.31,1.353],[-77.291,1.37],[-77.299,1.39],[-77.299,1.423],[-77.336,1.378],[-77.358,1.376],[-77.401,1.332],[-77.412,1.339],[-77.412,1.372],[-77.435,1.39],[-77.452,1.387],[-77.467,1.363],[-77.453,1.307],[-77.417,1.291],[-77.382,1.247],[-77.381,1.237],[-77.359,1.221],[-77.369,1.249],[-77.368,1.292],[-77.381,1.317],[-77.356,1.331],[-77.344,1.346],[-77.31,1.353]]]}},{"type":"Feature","properties":{},"geometry":{"type":"Polygon","coordinates":[[[-77.322,1.5],[-77.336,1.512],[-77.349,1.509],[-77.352,1.515],[-77.385,1.528],[-77.394,1.515],[-77.387,1.486],[-77.392,1.474],[-77.412,1.458],[-77.419,1.464],[-77.422,1.445],[-77.448,1.448],[-77.455,1.442],[-77.483,1.455],[-77.489,1.429],[-77.481,1.415],[-77.487,1.399],[-77.481,1.379],[-77.484,1.37],[-77.467,1.363],[-77.452,1.387],[-77.435,1.39],[-77.412,1.372],[-77.412,1.339],[-77.401,1.332],[-77.358,1.376],[-77.336,1.378],[-77.299,1.423],[-77.301,1.433],[-77.292,1.452],[-77.299,1.465],[-77.293,1.475],[-77.3,1.488],[-77.322,1.5]]]}},{"type":"Feature","properties":{},"geometry":{"type":"Polygon","coordinates":[[[-77.428,1.054],[-77.448,1.055],[-77.459,1.045],[-77.465,1.024],[-77.479,1.017],[-77.462,0.973],[-77.462,0.96],[-77.481,0.928],[-77.472,0.915],[-77.448,0.901],[-77.445,0.891],[-77.436,0.886],[-77.398,0.893],[-77.382,0.879],[-77.353,0.89],[-77.265,0.874],[-77.229,0.886],[-77.228,0.861],[-77.215,0.843],[-77.218,0.811],[-77.211,0.787],[-77.185,0.752],[-77.159,0.744],[-77.139,0.822],[-77.15,0.842],[-77.165,0.849],[-77.173,0.868],[-77.183,0.864],[-77.199,0.881],[-77.207,0.901],[-77.22,0.901],[-77.246,0.926],[-77.253,0.923],[-77.261,0.932],[-77.282,0.931],[-77.284,0.939],[-77.318,0.962],[-77.322,0.952],[-77.34,0.949],[-77.349,0.973],[-77.355,0.968],[-77.356,0.985],[-77.37,1.006],[-77.371,1.023],[-77.408,1.027],[-77.428,1.054]]]}},{"type":"Feature","properties":{},"geometry":{"type":"Polygon","coordinates":[[[-77.614,0.994],[-77.623,1.01],[-77.648,1.004],[-77.663,1.006],[-77.675,1.018],[-77.689,1.011],[-77.695,0.994],[-77.706,0.985],[-77.764,1.04],[-77.781,1.027],[-77.802,0.988],[-77.829,0.971],[-77.831,0.964],[-77.806,0.949],[-77.782,0.92],[-77.754,0.913],[-77.743,0.922],[-77.737,0.911],[-77.725,0.91],[-77.714,0.951],[-77.703,0.951],[-77.69,0.976],[-77.676,0.964],[-77.656,0.979],[-77.63,0.978],[-77.615,0.987],[-77.614,0.994]]]}},{"type":"Feature","properties":{},"geometry":{"type":"Polygon","coordinates":[[[-77.144,1.678],[-77.158,1.682],[-77.162,1.676],[-77.187,1.677],[-77.237,1.658],[-77.211,1.652],[-77.214,1.631],[-77.202,1.63],[-77.178,1.611],[-77.148,1.53],[-77.14,1.551],[-77.119,1.567],[-77.117,1.59],[-77.097,1.579],[-77.091,1.549],[-77.063,1.554],[-77.079,1.569],[-77.082,1.607],[-77.102,1.636],[-77.092,1.652],[-77.075,1.657],[-77.07,1.674],[-77.095,1.661],[-77.14,1.657],[-77.144,1.678]]]}},{"type":"Feature","properties":{},"geometry":{"type":"Polygon","coordinates":[[[-77.479,1.156],[-77.477,1.18],[-77.501,1.219],[-77.525,1.187],[-77.54,1.184],[-77.568,1.208],[-77.581,1.15],[-77.591,1.135],[-77.586,1.113],[-77.57,1.093],[-77.546,1.099],[-77.533,1.115],[-77.513,1.117],[-77.491,1.11],[-77.478,1.117],[-77.473,1.13],[-77.479,1.156]]]}},{"type":"Feature","properties":{},"geometry":{"type":"Polygon","coordinates":[[[-77.203,1.952],[-77.221,1.988],[-77.259,1.994],[-77.279,2.021],[-77.303,2.027],[-77.306,2.036],[-77.332,2.05],[-77.334,2.06],[-77.32,2.072],[-77.311,2.097],[-77.309,2.125],[-77.335,2.096],[-77.338,2.074],[-77.352,2.053],[-77.339,2.035],[-77.312,2.019],[-77.311,1.968],[-77.36,1.962],[-77.372,1.99],[-77.378,1.994],[-77.389,1.988],[-77.396,1.982],[-77.421,1.907],[-77.401,1.883],[-77.385,1.873],[-77.357,1.878],[-77.356,1.868],[-77.325,1.851],[-77.308,1.832],[-77.295,1.832],[-77.281,1.86],[-77.256,1.869],[-77.248,1.88],[-77.246,1.911],[-77.225,1.92],[-77.218,1.917],[-77.22,1.934],[-77.21,1.936],[-77.203,1.952]]]}},{"type":"Feature","properties":{},"geometry":{"type":"Polygon","coordinates":[[[-77.576,0.956],[-77.59,0.975],[-77.59,0.961],[-77.611,0.943],[-77.594,0.913],[-77.597,0.906],[-77.575,0.894],[-77.552,0.904],[-77.576,0.956]]]}},{"type":"Feature","properties":{},"geometry":{"type":"Polygon","coordinates":[[[-77.474,1.022],[-77.497,1.024],[-77.518,1.007],[-77.558,1.001],[-77.573,0.989],[-77.589,0.987],[-77.595,0.993],[-77.59,0.975],[-77.576,0.956],[-77.553,0.959],[-77.516,0.945],[-77.493,0.947],[-77.489,0.954],[-77.47,0.948],[-77.462,0.96],[-77.462,0.973],[-77.479,1.017],[-77.474,1.022]]]}},{"type":"Feature","properties":{},"geometry":{"type":"Polygon","coordinates":[[[-77.448,1.055],[-77.456,1.084],[-77.475,1.092],[-77.478,1.117],[-77.498,1.108],[-77.513,1.117],[-77.533,1.115],[-77.546,1.099],[-77.57,1.093],[-77.552,1.065],[-77.512,1.063],[-77.515,1.045],[-77.497,1.024],[-77.465,1.024],[-77.459,1.045],[-77.448,1.055]]]}},{"type":"Feature","properties":{},"geometry":{"type":"Polygon","coordinates":[[[-77.538,0.896],[-77.552,0.904],[-77.57,0.896],[-77.568,0.89],[-77.575,0.885],[-77.585,0.888],[-77.592,0.882],[-77.589,0.866],[-77.597,0.844],[-77.605,0.844],[-77.615,0.856],[-77.641,0.859],[-77.647,0.867],[-77.672,0.868],[-77.67,0.854],[-77.677,0.853],[-77.676,0.843],[-77.684,0.838],[-77.684,0.828],[-77.666,0.818],[-77.664,0.811],[-77.675,0.801],[-77.676,0.791],[-77.662,0.79],[-77.691,0.766],[-77.698,0.741],[-77.675,0.737],[-77.666,0.705],[-77.625,0.696],[-77.564,0.652],[-77.548,0.649],[-77.492,0.663],[-77.486,0.656],[-77.48,0.641],[-77.482,0.606],[-77.489,0.585],[-77.511,0.565],[-77.522,0.532],[-77.517,0.494],[-77.525,0.477],[-77.519,0.454],[-77.52,0.423],[-77.53,0.41],[-77.527,0.4],[-77.492,0.404],[-77.425,0.392],[-77.408,0.405],[-77.381,0.385],[-77.383,0.395],[-77.369,0.398],[-77.325,0.387],[-77.297,0.365],[-77.272,0.364],[-77.261,0.37],[-77.244,0.361],[-77.202,0.368],[-77.179,0.39],[-77.164,0.387],[-77.15,0.376],[-77.126,0.38],[-77.113,0.373],[-77.113,0.381],[-77.097,0.383],[-77.096,0.395],[-77.089,0.394],[-77.094,0.414],[-77.089,0.424],[-77.105,0.433],[-77.108,0.449],[-77.101,0.464],[-77.105,0.477],[-77.116,0.483],[-77.13,0.525],[-77.126,0.556],[-77.115,0.564],[-77.12,0.576],[-77.117,0.59],[-77.128,0.602],[-77.133,0.596],[-77.136,0.603],[-77.156,0.606],[-77.176,0.617],[-77.187,0.631],[-77.386,0.627],[-77.38,0.636],[-77.403,0.653],[-77.407,0.664],[-77.428,0.669],[-77.428,0.694],[-77.435,0.698],[-77.436,0.711],[-77.461,0.744],[-77.484,0.757],[-77.516,0.756],[-77.577,0.728],[-77.642,0.729],[-77.603,0.784],[-77.613,0.79],[-77.607,0.8],[-77.579,0.807],[-77.572,0.814],[-77.573,0.821],[-77.557,0.841],[-77.559,0.874],[-77.538,0.896]]]}},{"type":"Feature","properties":{},"geometry":{"type":"Polygon","coordinates":[[[-77.799,0.999],[-77.82,1.013],[-77.825,1.028],[-77.84,1.024],[-77.848,1.03],[-77.855,1.047],[-77.887,1.05],[-77.904,1.058],[-77.917,1.078],[-78.125,1.031],[-78.209,1.005],[-78.195,0.984],[-78.191,0.96],[-78.197,0.949],[-78.186,0.938],[-78.154,0.924],[-78.121,0.936],[-78.108,0.929],[-78.105,0.911],[-78.089,0.897],[-78.071,0.897],[-78.066,0.89],[-78.022,0.875],[-77.965,0.824],[-77.867,0.802],[-77.82,0.809],[-77.805,0.831],[-77.765,0.842],[-77.759,0.839],[-77.753,0.848],[-77.761,0.867],[-77.779,0.884],[-77.779,0.891],[-77.767,0.892],[-77.774,0.918],[-77.79,0.926],[-77.806,0.949],[-77.831,0.964],[-77.829,0.971],[-77.802,0.988],[-77.799,0.999]]]}},{"type":"Feature","properties":{},"geometry":{"type":"Polygon","coordinates":[[[-77.609,1.872],[-77.644,1.89],[-77.661,1.906],[-77.686,1.891],[-77.686,1.883],[-77.673,1.866],[-77.686,1.858],[-77.704,1.86],[-77.712,1.815],[-77.691,1.823],[-77.675,1.807],[-77.661,1.811],[-77.649,1.781],[-77.637,1.778],[-77.644,1.767],[-77.646,1.737],[-77.66,1.72],[-77.659,1.701],[-77.611,1.667],[-77.594,1.63],[-77.601,1.601],[-77.585,1.58],[-77.565,1.58],[-77.543,1.603],[-77.502,1.611],[-77.474,1.604],[-77.475,1.619],[-77.486,1.631],[-77.479,1.644],[-77.484,1.651],[-77.484,1.672],[-77.499,1.681],[-77.505,1.674],[-77.524,1.69],[-77.509,1.698],[-77.509,1.704],[-77.52,1.724],[-77.529,1.729],[-77.529,1.74],[-77.548,1.741],[-77.551,1.752],[-77.586,1.752],[-77.596,1.761],[-77.591,1.772],[-77.599,1.778],[-77.591,1.788],[-77.619,1.807],[-77.616,1.812],[-77.624,1.824],[-77.606,1.855],[-77.609,1.872]]]}},{"type":"Feature","properties":{},"geometry":{"type":"Polygon","coordinates":[[[-77.396,1.982],[-77.426,1.988],[-77.454,1.969],[-77.494,1.958],[-77.502,1.925],[-77.513,1.907],[-77.566,1.937],[-77.601,1.94],[-77.629,1.931],[-77.64,1.911],[-77.662,1.911],[-77.672,1.903],[-77.661,1.906],[-77.644,1.89],[-77.609,1.872],[-77.581,1.882],[-77.575,1.869],[-77.528,1.848],[-77.528,1.829],[-77.516,1.816],[-77.45,1.809],[-77.422,1.824],[-77.416,1.792],[-77.405,1.777],[-77.402,1.754],[-77.393,1.741],[-77.403,1.713],[-77.412,1.704],[-77.408,1.687],[-77.393,1.686],[-77.378,1.698],[-77.363,1.696],[-77.348,1.679],[-77.355,1.669],[-77.347,1.667],[-77.33,1.682],[-77.298,1.753],[-77.295,1.766],[-77.309,1.801],[-77.296,1.818],[-77.295,1.832],[-77.308,1.832],[-77.325,1.851],[-77.356,1.868],[-77.357,1.878],[-77.385,1.873],[-77.418,1.899],[-77.42,1.913],[-77.409,1.93],[-77.396,1.982]]]}},{"type":"Feature","properties":{},"geometry":{"type":"Polygon","coordinates":[[[-77.535,1.448],[-77.543,1.465],[-77.551,1.467],[-77.592,1.514],[-77.579,1.542],[-77.578,1.559],[-77.589,1.563],[-77.588,1.57],[-77.594,1.57],[-77.598,1.579],[-77.633,1.576],[-77.664,1.558],[-77.673,1.545],[-77.689,1.548],[-77.712,1.572],[-77.721,1.57],[-77.728,1.579],[-77.736,1.579],[-77.747,1.59],[-77.745,1.602],[-77.756,1.61],[-77.777,1.607],[-77.773,1.614],[-77.783,1.621],[-77.775,1.634],[-77.778,1.648],[-77.814,1.666],[-77.829,1.662],[-77.852,1.622],[-77.859,1.625],[-77.865,1.617],[-77.856,1.595],[-77.835,1.589],[-77.813,1.592],[-77.796,1.567],[-77.804,1.557],[-77.78,1.532],[-77.768,1.536],[-77.765,1.544],[-77.755,1.545],[-77.752,1.536],[-77.758,1.533],[-77.753,1.526],[-77.741,1.529],[-77.737,1.51],[-77.723,1.503],[-77.721,1.509],[-77.706,1.509],[-77.692,1.522],[-77.694,1.53],[-77.645,1.529],[-77.611,1.503],[-77.607,1.47],[-77.579,1.43],[-77.55,1.433],[-77.547,1.442],[-77.535,1.448]]]}},{"type":"Feature","properties":{},"geometry":{"type":"Polygon","coordinates":[[[-77.712,1.815],[-77.722,1.82],[-77.726,1.85],[-77.734,1.867],[-77.741,1.869],[-77.757,1.858],[-77.774,1.864],[-77.797,1.854],[-77.792,1.843],[-77.824,1.828],[-77.824,1.807],[-77.874,1.803],[-77.891,1.792],[-77.883,1.767],[-77.887,1.753],[-77.898,1.751],[-77.905,1.731],[-77.92,1.72],[-77.923,1.7],[-77.934,1.696],[-77.939,1.705],[-77.952,1.71],[-77.963,1.696],[-77.96,1.686],[-77.943,1.669],[-77.924,1.668],[-77.895,1.634],[-77.893,1.619],[-77.881,1.614],[-77.865,1.617],[-77.859,1.625],[-77.852,1.622],[-77.829,1.662],[-77.814,1.666],[-77.804,1.662],[-77.778,1.648],[-77.775,1.634],[-77.783,1.621],[-77.773,1.614],[-77.777,1.607],[-77.756,1.61],[-77.745,1.602],[-77.747,1.59],[-77.736,1.579],[-77.728,1.579],[-77.721,1.57],[-77.712,1.572],[-77.689,1.548],[-77.673,1.545],[-77.664,1.558],[-77.633,1.576],[-77.598,1.579],[-77.594,1.57],[-77.588,1.57],[-77.589,1.563],[-77.578,1.559],[-77.579,1.542],[-77.592,1.514],[-77.531,1.447],[-77.51,1.469],[-77.502,1.492],[-77.474,1.505],[-77.439,1.549],[-77.437,1.562],[-77.446,1.588],[-77.461,1.586],[-77.478,1.596],[-77.48,1.604],[-77.502,1.611],[-77.543,1.603],[-77.573,1.576],[-77.595,1.589],[-77.601,1.601],[-77.594,1.63],[-77.611,1.667],[-77.659,1.701],[-77.66,1.72],[-77.646,1.737],[-77.644,1.767],[-77.637,1.778],[-77.649,1.781],[-77.661,1.811],[-77.675,1.807],[-77.691,1.823],[-77.712,1.815]]]}},{"type":"Feature","properties":{},"geometry":{"type":"Polygon","coordinates":[[[-77.355,1.669],[-77.348,1.679],[-77.363,1.696],[-77.378,1.698],[-77.393,1.686],[-77.408,1.687],[-77.412,1.704],[-77.403,1.713],[-77.393,1.741],[-77.402,1.754],[-77.405,1.777],[-77.416,1.792],[-77.422,1.824],[-77.45,1.809],[-77.516,1.816],[-77.528,1.829],[-77.528,1.848],[-77.575,1.869],[-77.581,1.882],[-77.609,1.872],[-77.606,1.855],[-77.624,1.824],[-77.616,1.812],[-77.619,1.807],[-77.591,1.788],[-77.599,1.778],[-77.591,1.772],[-77.596,1.761],[-77.586,1.752],[-77.551,1.752],[-77.548,1.741],[-77.529,1.74],[-77.529,1.729],[-77.52,1.724],[-77.509,1.704],[-77.509,1.698],[-77.524,1.69],[-77.505,1.674],[-77.499,1.681],[-77.484,1.672],[-77.481,1.663],[-77.484,1.651],[-77.479,1.644],[-77.486,1.631],[-77.475,1.619],[-77.478,1.596],[-77.449,1.585],[-77.437,1.595],[-77.425,1.593],[-77.396,1.606],[-77.374,1.631],[-77.355,1.669]]]}},{"type":"Feature","properties":{},"geometry":{"type":"Polygon","coordinates":[[[-77.917,1.078],[-77.917,1.085],[-77.933,1.099],[-77.952,1.104],[-77.941,1.12],[-77.955,1.145],[-77.952,1.156],[-77.963,1.165],[-77.977,1.199],[-77.969,1.212],[-77.948,1.217],[-77.942,1.231],[-77.928,1.242],[-77.892,1.257],[-77.903,1.284],[-77.911,1.283],[-77.91,1.305],[-77.915,1.311],[-77.91,1.317],[-77.898,1.313],[-77.881,1.329],[-77.869,1.351],[-77.853,1.362],[-77.847,1.4],[-77.826,1.414],[-77.826,1.421],[-77.84,1.42],[-77.836,1.431],[-77.845,1.448],[-77.837,1.452],[-77.84,1.463],[-77.848,1.457],[-77.874,1.489],[-77.886,1.469],[-77.879,1.449],[-77.886,1.42],[-77.897,1.408],[-77.921,1.401],[-77.928,1.414],[-78.009,1.426],[-78.01,1.414],[-78.018,1.418],[-78.035,1.404],[-78.05,1.378],[-78.041,1.364],[-78.049,1.313],[-78.022,1.268],[-78.029,1.251],[-78.067,1.251],[-78.097,1.236],[-78.107,1.206],[-78.291,1.138],[-78.276,1.109],[-78.266,1.112],[-78.266,1.101],[-78.252,1.094],[-78.252,1.079],[-78.261,1.082],[-78.277,1.073],[-78.281,1.058],[-78.251,1.029],[-78.238,1.025],[-78.235,1.015],[-78.209,1.005],[-78.125,1.031],[-77.917,1.078]]]}},{"type":"Feature","properties":{},"geometry":{"type":"Polygon","coordinates":[[[-77.865,1.617],[-77.881,1.614],[-77.893,1.619],[-77.895,1.634],[-77.924,1.668],[-77.943,1.669],[-77.963,1.696],[-77.952,1.71],[-77.939,1.705],[-77.934,1.696],[-77.923,1.7],[-77.92,1.72],[-77.905,1.731],[-77.898,1.751],[-77.887,1.753],[-77.883,1.767],[-77.891,1.792],[-77.874,1.803],[-77.824,1.807],[-77.824,1.828],[-77.792,1.843],[-77.797,1.854],[-77.844,1.818],[-77.858,1.821],[-77.88,1.812],[-77.912,1.779],[-77.932,1.784],[-77.952,1.78],[-77.973,1.752],[-78.008,1.726],[-78.059,1.746],[-78.072,1.735],[-78.125,1.724],[-78.143,1.73],[-78.163,1.709],[-78.18,1.709],[-78.193,1.699],[-78.206,1.701],[-78.206,1.714],[-78.213,1.716],[-78.217,1.753],[-78.235,1.735],[-78.227,1.725],[-78.24,1.699],[-78.228,1.675],[-78.238,1.649],[-78.246,1.648],[-78.255,1.634],[-78.26,1.617],[-78.257,1.575],[-78.269,1.542],[-78.261,1.51],[-78.269,1.469],[-78.265,1.371],[-78.275,1.362],[-78.285,1.364],[-78.293,1.377],[-78.32,1.392],[-78.323,1.413],[-78.342,1.415],[-78.347,1.409],[-78.364,1.421],[-78.381,1.403],[-78.406,1.402],[-78.431,1.387],[-78.475,1.38],[-78.476,1.361],[-78.487,1.354],[-78.483,1.345],[-78.51,1.189],[-78.506,1.197],[-78.49,1.186],[-78.48,1.192],[-78.47,1.189],[-78.462,1.176],[-78.438,1.191],[-78.43,1.187],[-78.427,1.172],[-78.438,1.157],[-78.433,1.144],[-78.416,1.139],[-78.417,1.149],[-78.425,1.154],[-78.418,1.16],[-78.395,1.152],[-78.382,1.159],[-78.381,1.171],[-78.327,1.186],[-78.326,1.195],[-78.295,1.17],[-78.299,1.156],[-78.291,1.138],[-78.107,1.206],[-78.097,1.236],[-78.067,1.251],[-78.029,1.251],[-78.022,1.268],[-78.047,1.307],[-78.041,1.364],[-78.05,1.378],[-78.026,1.413],[-78.018,1.418],[-78.01,1.414],[-78.009,1.426],[-77.928,1.414],[-77.921,1.401],[-77.897,1.408],[-77.886,1.42],[-77.879,1.449],[-77.886,1.469],[-77.874,1.489],[-77.886,1.494],[-77.881,1.505],[-77.856,1.514],[-77.85,1.535],[-77.855,1.539],[-77.839,1.558],[-77.854,1.56],[-77.848,1.577],[-77.851,1.587],[-77.843,1.595],[-77.856,1.595],[-77.865,1.617]]]}},{"type":"Feature","properties":{},"geometry":{"type":"Polygon","coordinates":[[[-78.113,2.644],[-78.137,2.644],[-78.135,2.663],[-78.143,2.68],[-78.15,2.684],[-78.163,2.676],[-78.225,2.667],[-78.182,2.579],[-78.191,2.543],[-78.175,2.534],[-78.176,2.521],[-78.168,2.515],[-78.169,2.478],[-78.159,2.426],[-78.162,2.303],[-78.176,2.224],[-78.183,2.11],[-78.136,2.104],[-78.133,2.094],[-78.122,2.085],[-78.093,2.086],[-78.091,2.077],[-78.083,2.085],[-78.058,2.092],[-78.049,2.081],[-78.036,2.081],[-78.025,2.092],[-77.993,2.072],[-77.972,2.104],[-77.958,2.107],[-77.953,2.084],[-77.904,2.085],[-77.898,2.071],[-77.89,2.069],[-77.901,2.047],[-77.873,2.01],[-77.873,1.997],[-77.866,1.992],[-77.872,1.975],[-77.858,1.958],[-77.861,1.95],[-77.819,1.916],[-77.757,1.93],[-77.752,1.925],[-77.742,1.931],[-77.731,1.929],[-77.721,1.918],[-77.715,1.924],[-77.706,1.92],[-77.682,1.896],[-77.662,1.911],[-77.64,1.911],[-77.629,1.931],[-77.601,1.94],[-77.566,1.937],[-77.513,1.907],[-77.502,1.925],[-77.494,1.958],[-77.454,1.969],[-77.426,1.988],[-77.396,1.982],[-77.378,1.994],[-77.36,1.962],[-77.311,1.968],[-77.312,2.019],[-77.339,2.035],[-77.352,2.053],[-77.338,2.074],[-77.335,2.096],[-77.309,2.125],[-77.311,2.142],[-77.305,2.146],[-77.317,2.178],[-77.308,2.195],[-77.317,2.201],[-77.323,2.222],[-77.36,2.263],[-77.375,2.264],[-77.387,2.256],[-77.443,2.285],[-77.459,2.286],[-77.468,2.275],[-77.478,2.275],[-77.472,2.241],[-77.488,2.216],[-77.488,2.195],[-77.544,2.196],[-77.554,2.202],[-77.574,2.181],[-77.599,2.168],[-77.589,2.129],[-77.596,2.124],[-77.598,2.104],[-77.59,2.093],[-77.583,2.025],[-77.622,2.034],[-77.634,2.024],[-77.654,2.024],[-77.673,1.99],[-77.688,1.986],[-77.735,1.996],[-77.803,2.041],[-77.833,2.048],[-77.846,2.081],[-77.869,2.103],[-77.918,2.121],[-77.94,2.161],[-77.935,2.178],[-77.927,2.182],[-77.926,2.205],[-77.916,2.21],[-77.916,2.226],[-77.946,2.271],[-77.949,2.298],[-77.973,2.326],[-77.985,2.332],[-78.012,2.392],[-78.023,2.397],[-78.039,2.427],[-78.052,2.434],[-78.047,2.453],[-78.059,2.465],[-78.059,2.477],[-78.079,2.483],[-78.086,2.48],[-78.092,2.487],[-78.089,2.505],[-78.076,2.519],[-78.092,2.549],[-78.097,2.598],[-78.115,2.617],[-78.113,2.644]]]}},{"type":"Feature","properties":{},"geometry":{"type":"Polygon","coordinates":[[[-78.183,2.11],[-78.176,2.224],[-78.162,2.303],[-78.159,2.426],[-78.169,2.478],[-78.168,2.515],[-78.176,2.521],[-78.175,2.534],[-78.191,2.543],[-78.182,2.579],[-78.225,2.667],[-78.272,2.656],[-78.311,2.658],[-78.308,2.636],[-78.275,2.585],[-78.265,2.545],[-78.24,2.514],[-78.242,2.459],[-78.225,2.455],[-78.209,2.461],[-78.203,2.449],[-78.206,2.442],[-78.199,2.425],[-78.218,2.382],[-78.206,2.338],[-78.213,2.318],[-78.204,2.306],[-78.218,2.283],[-78.207,2.194],[-78.215,2.151],[-78.214,2.128],[-78.206,2.113],[-78.215,2.058],[-78.208,2.035],[-78.189,2.036],[-78.181,2.05],[-78.189,2.077],[-78.171,2.097],[-78.18,2.097],[-78.183,2.11]]]}},{"type":"Feature","properties":{},"geometry":{"type":"Polygon","coordinates":[[[-77.682,1.896],[-77.706,1.92],[-77.715,1.924],[-77.721,1.918],[-77.731,1.929],[-77.796,1.924],[-77.811,1.916],[-77.831,1.923],[-77.861,1.95],[-77.858,1.958],[-77.872,1.975],[-77.866,1.992],[-77.873,1.997],[-77.873,2.01],[-77.901,2.047],[-77.89,2.069],[-77.898,2.071],[-77.904,2.085],[-77.953,2.084],[-77.958,2.107],[-77.972,2.104],[-77.993,2.072],[-78.025,2.092],[-78.036,2.081],[-78.049,2.081],[-78.058,2.092],[-78.083,2.085],[-78.091,2.077],[-78.093,2.086],[-78.122,2.085],[-78.133,2.094],[-78.136,2.104],[-78.183,2.11],[-78.18,2.097],[-78.171,2.097],[-78.189,2.077],[-78.181,2.05],[-78.189,2.036],[-78.23,2.033],[-78.243,2.025],[-78.264,2.027],[-78.271,2.018],[-78.264,2.009],[-78.279,1.986],[-78.267,1.972],[-78.274,1.939],[-78.281,1.936],[-78.276,1.921],[-78.283,1.909],[-78.276,1.897],[-78.272,1.842],[-78.26,1.843],[-78.269,1.824],[-78.257,1.784],[-78.261,1.766],[-78.233,1.731],[-78.217,1.753],[-78.213,1.716],[-78.206,1.714],[-78.206,1.701],[-78.193,1.699],[-78.18,1.709],[-78.163,1.709],[-78.143,1.73],[-78.125,1.724],[-78.072,1.735],[-78.059,1.746],[-78.008,1.726],[-77.973,1.752],[-77.952,1.78],[-77.932,1.784],[-77.912,1.779],[-77.88,1.812],[-77.858,1.821],[-77.844,1.818],[-77.811,1.848],[-77.774,1.864],[-77.757,1.858],[-77.741,1.869],[-77.734,1.867],[-77.726,1.85],[-77.722,1.82],[-77.712,1.815],[-77.704,1.86],[-77.686,1.858],[-77.673,1.866],[-77.686,1.883],[-77.682,1.896]]]}},{"type":"Feature","properties":{},"geometry":{"type":"Polygon","coordinates":[[[-78.326,2.657],[-78.371,2.637],[-78.395,2.603],[-78.455,2.596],[-78.454,2.576],[-78.46,2.574],[-78.469,2.555],[-78.487,2.548],[-78.502,2.531],[-78.507,2.508],[-78.521,2.501],[-78.527,2.506],[-78.55,2.492],[-78.556,2.455],[-78.548,2.454],[-78.568,2.419],[-78.567,2.414],[-78.559,2.416],[-78.568,2.377],[-78.559,2.379],[-78.561,2.364],[-78.552,2.363],[-78.563,2.334],[-78.559,2.319],[-78.531,2.312],[-78.526,2.296],[-78.501,2.288],[-78.501,2.277],[-78.483,2.274],[-78.47,2.25],[-78.435,2.239],[-78.422,2.242],[-78.417,2.228],[-78.424,2.223],[-78.412,2.203],[-78.398,2.2],[-78.389,2.191],[-78.385,2.193],[-78.426,2.279],[-78.416,2.28],[-78.381,2.367],[-78.345,2.425],[-78.336,2.467],[-78.345,2.479],[-78.342,2.521],[-78.305,2.539],[-78.303,2.551],[-78.323,2.597],[-78.326,2.657]]]}},{"type":"Feature","properties":{},"geometry":{"type":"Polygon","coordinates":[[[-78.208,2.035],[-78.215,2.058],[-78.206,2.113],[-78.214,2.128],[-78.215,2.151],[-78.207,2.194],[-78.218,2.283],[-78.204,2.306],[-78.213,2.318],[-78.206,2.338],[-78.218,2.382],[-78.199,2.425],[-78.206,2.442],[-78.203,2.449],[-78.209,2.461],[-78.225,2.455],[-78.242,2.459],[-78.24,2.514],[-78.265,2.545],[-78.275,2.585],[-78.308,2.636],[-78.311,2.658],[-78.326,2.657],[-78.323,2.597],[-78.303,2.551],[-78.305,2.539],[-78.342,2.521],[-78.345,2.479],[-78.336,2.467],[-78.345,2.425],[-78.381,2.367],[-78.416,2.28],[-78.426,2.279],[-78.426,2.273],[-78.381,2.191],[-78.388,2.181],[-78.38,2.169],[-78.384,2.163],[-78.373,2.154],[-78.373,2.139],[-78.35,2.126],[-78.343,2.107],[-78.349,2.099],[-78.344,2.093],[-78.351,2.089],[-78.35,2.082],[-78.339,2.082],[-78.333,2.074],[-78.338,2.064],[-78.33,2.057],[-78.32,2.06],[-78.321,2.046],[-78.312,2.041],[-78.296,2.045],[-78.297,2.024],[-78.271,2.018],[-78.264,2.027],[-78.243,2.025],[-78.208,2.035]]]}},{"type":"Feature","properties":{},"geometry":{"type":"Polygon","coordinates":[[[-78.47,2.25],[-78.483,2.274],[-78.501,2.277],[-78.522,2.239],[-78.533,2.239],[-78.541,2.222],[-78.556,2.216],[-78.56,2.209],[-78.546,2.2],[-78.55,2.195],[-78.594,2.184],[-78.606,2.173],[-78.626,2.187],[-78.634,2.18],[-78.625,2.164],[-78.627,2.156],[-78.67,2.18],[-78.673,2.205],[-78.681,2.209],[-78.695,2.201],[-78.701,2.214],[-78.713,2.164],[-78.704,2.119],[-78.691,2.11],[-78.678,2.057],[-78.665,2.05],[-78.65,2.05],[-78.654,2.044],[-78.67,2.052],[-78.676,2.049],[-78.669,2.008],[-78.673,1.983],[-78.669,1.973],[-78.65,1.977],[-78.629,2.01],[-78.624,1.999],[-78.606,1.996],[-78.587,1.972],[-78.588,1.957],[-78.602,1.945],[-78.597,1.894],[-78.571,1.901],[-78.538,1.896],[-78.531,1.905],[-78.544,1.976],[-78.526,2.031],[-78.518,2.035],[-78.526,2.059],[-78.51,2.087],[-78.522,2.093],[-78.529,2.131],[-78.505,2.146],[-78.506,2.163],[-78.492,2.178],[-78.501,2.186],[-78.494,2.231],[-78.47,2.25]]]}},{"type":"Feature","properties":{},"geometry":{"type":"Polygon","coordinates":[[[-78.385,2.193],[-78.389,2.191],[-78.398,2.2],[-78.412,2.203],[-78.424,2.223],[-78.417,2.228],[-78.422,2.242],[-78.435,2.239],[-78.47,2.25],[-78.494,2.231],[-78.501,2.186],[-78.492,2.178],[-78.506,2.163],[-78.505,2.146],[-78.529,2.131],[-78.522,2.093],[-78.51,2.087],[-78.526,2.059],[-78.517,2.028],[-78.535,1.979],[-78.516,1.946],[-78.486,1.93],[-78.467,1.908],[-78.461,1.878],[-78.467,1.86],[-78.475,1.856],[-78.459,1.841],[-78.448,1.808],[-78.471,1.787],[-78.408,1.747],[-78.397,1.728],[-78.393,1.699],[-78.367,1.659],[-78.374,1.645],[-78.398,1.639],[-78.4,1.63],[-78.368,1.587],[-78.409,1.54],[-78.411,1.517],[-78.399,1.492],[-78.389,1.488],[-78.351,1.513],[-78.328,1.565],[-78.334,1.582],[-78.315,1.587],[-78.311,1.579],[-78.296,1.586],[-78.287,1.597],[-78.293,1.613],[-78.287,1.611],[-78.257,1.628],[-78.246,1.648],[-78.238,1.649],[-78.228,1.675],[-78.24,1.699],[-78.227,1.725],[-78.253,1.75],[-78.261,1.766],[-78.257,1.784],[-78.269,1.824],[-78.26,1.843],[-78.272,1.842],[-78.276,1.897],[-78.283,1.909],[-78.276,1.921],[-78.281,1.936],[-78.274,1.939],[-78.267,1.972],[-78.279,1.986],[-78.264,2.009],[-78.271,2.018],[-78.297,2.024],[-78.296,2.045],[-78.312,2.041],[-78.321,2.046],[-78.32,2.06],[-78.33,2.057],[-78.338,2.064],[-78.333,2.074],[-78.339,2.082],[-78.35,2.082],[-78.351,2.089],[-78.344,2.093],[-78.349,2.099],[-78.343,2.107],[-78.35,2.126],[-78.373,2.139],[-78.373,2.154],[-78.384,2.163],[-78.385,2.193]]]}},{"type":"Feature","properties":{},"geometry":{"type":"Polygon","coordinates":[[[-77.928,2.64],[-77.935,2.638],[-77.934,2.627],[-77.946,2.626],[-77.965,2.64],[-77.973,2.661],[-78.01,2.652],[-78.02,2.644],[-78.036,2.648],[-78.064,2.612],[-78.072,2.611],[-78.083,2.636],[-78.097,2.647],[-78.113,2.644],[-78.117,2.624],[-78.097,2.598],[-78.092,2.549],[-78.076,2.519],[-78.089,2.505],[-78.092,2.487],[-78.086,2.48],[-78.079,2.483],[-78.059,2.477],[-78.059,2.465],[-78.047,2.453],[-78.052,2.434],[-78.039,2.427],[-78.023,2.397],[-78.012,2.392],[-77.985,2.332],[-77.973,2.326],[-77.949,2.298],[-77.946,2.271],[-77.916,2.226],[-77.916,2.21],[-77.926,2.205],[-77.927,2.182],[-77.935,2.178],[-77.94,2.161],[-77.933,2.148],[-77.918,2.121],[-77.861,2.096],[-77.838,2.067],[-77.833,2.048],[-77.803,2.041],[-77.725,1.992],[-77.688,1.986],[-77.673,1.99],[-77.654,2.024],[-77.634,2.024],[-77.622,2.034],[-77.583,2.025],[-77.59,2.093],[-77.598,2.104],[-77.596,2.124],[-77.589,2.129],[-77.599,2.168],[-77.65,2.167],[-77.663,2.159],[-77.699,2.154],[-77.734,2.134],[-77.781,2.148],[-77.801,2.17],[-77.821,2.178],[-77.836,2.177],[-77.849,2.191],[-77.853,2.205],[-77.848,2.261],[-77.861,2.268],[-77.878,2.303],[-77.884,2.319],[-77.883,2.353],[-77.894,2.366],[-77.9,2.392],[-77.918,2.412],[-77.926,2.51],[-77.915,2.544],[-77.916,2.594],[-77.928,2.64]]]}},{"type":"Feature","properties":{},"geometry":{"type":"MultiPolygon","coordinates":[[[[-78.257,1.628],[-78.287,1.611],[-78.293,1.613],[-78.287,1.597],[-78.296,1.586],[-78.311,1.579],[-78.315,1.587],[-78.334,1.582],[-78.328,1.565],[-78.351,1.513],[-78.373,1.504],[-78.384,1.489],[-78.399,1.492],[-78.411,1.517],[-78.409,1.54],[-78.368,1.587],[-78.4,1.63],[-78.398,1.639],[-78.374,1.645],[-78.367,1.659],[-78.393,1.699],[-78.397,1.728],[-78.408,1.747],[-78.471,1.787],[-78.448,1.808],[-78.459,1.841],[-78.475,1.856],[-78.467,1.86],[-78.462,1.893],[-78.475,1.919],[-78.497,1.938],[-78.516,1.946],[-78.534,1.97],[-78.533,1.992],[-78.518,2.035],[-78.526,2.031],[-78.544,1.976],[-78.529,1.916],[-78.535,1.913],[-78.531,1.905],[-78.538,1.896],[-78.551,1.898],[-78.54,1.857],[-78.551,1.835],[-78.55,1.805],[-78.542,1.802],[-78.564,1.793],[-78.563,1.761],[-78.554,1.758],[-78.568,1.751],[-78.577,1.774],[-78.586,1.778],[-78.6,1.774],[-78.594,1.79],[-78.602,1.794],[-78.651,1.794],[-78.655,1.787],[-78.68,1.789],[-78.688,1.782],[-78.675,1.762],[-78.68,1.749],[-78.688,1.749],[-78.68,1.759],[-78.691,1.775],[-78.707,1.778],[-78.715,1.793],[-78.719,1.748],[-78.724,1.743],[-78.732,1.749],[-78.727,1.766],[-78.738,1.797],[-78.751,1.801],[-78.76,1.789],[-78.781,1.794],[-78.78,1.803],[-78.765,1.804],[-78.76,1.82],[-78.754,1.817],[-78.754,1.806],[-78.738,1.809],[-78.723,1.825],[-78.739,1.828],[-78.788,1.801],[-78.796,1.806],[-78.81,1.79],[-78.8,1.815],[-78.78,1.825],[-78.81,1.829],[-78.861,1.807],[-78.94,1.722],[-78.953,1.699],[-78.954,1.684],[-78.962,1.688],[-78.991,1.669],[-79.007,1.658],[-79.009,1.649],[-78.999,1.644],[-79.001,1.636],[-79.009,1.633],[-78.989,1.601],[-78.959,1.594],[-78.932,1.563],[-78.92,1.556],[-78.914,1.561],[-78.902,1.543],[-78.893,1.544],[-78.885,1.553],[-78.864,1.551],[-78.866,1.545],[-78.874,1.548],[-78.867,1.524],[-78.874,1.523],[-78.875,1.515],[-78.87,1.499],[-78.849,1.476],[-78.819,1.473],[-78.803,1.481],[-78.834,1.457],[-78.833,1.45],[-78.82,1.45],[-78.816,1.459],[-78.811,1.453],[-78.818,1.446],[-78.815,1.434],[-78.798,1.427],[-78.791,1.408],[-78.78,1.41],[-78.779,1.393],[-78.76,1.395],[-78.747,1.379],[-78.731,1.368],[-78.72,1.369],[-78.71,1.359],[-78.703,1.34],[-78.661,1.32],[-78.653,1.292],[-78.647,1.289],[-78.649,1.277],[-78.622,1.251],[-78.591,1.24],[-78.545,1.244],[-78.542,1.229],[-78.514,1.212],[-78.517,1.19],[-78.51,1.189],[-78.483,1.345],[-78.487,1.354],[-78.476,1.361],[-78.475,1.38],[-78.431,1.387],[-78.406,1.402],[-78.381,1.403],[-78.364,1.421],[-78.347,1.409],[-78.342,1.415],[-78.323,1.413],[-78.32,1.392],[-78.293,1.377],[-78.285,1.364],[-78.275,1.362],[-78.265,1.371],[-78.269,1.469],[-78.261,1.51],[-78.269,1.542],[-78.257,1.575],[-78.257,1.628]]],[[[-78.564,2.433],[-78.574,2.444],[-78.624,2.372],[-78.628,2.32],[-78.661,2.287],[-78.665,2.27],[-78.662,2.261],[-78.673,2.241],[-78.682,2.246],[-78.688,2.233],[-78.697,2.23],[-78.693,2.222],[-78.701,2.214],[-78.695,2.201],[-78.681,2.209],[-78.673,2.205],[-78.67,2.18],[-78.633,2.155],[-78.625,2.164],[-78.634,2.18],[-78.626,2.187],[-78.606,2.173],[-78.594,2.184],[-78.55,2.195],[-78.546,2.2],[-78.56,2.209],[-78.556,2.216],[-78.541,2.222],[-78.533,2.239],[-78.522,2.239],[-78.501,2.277],[-78.501,2.288],[-78.526,2.296],[-78.531,2.312],[-78.559,2.319],[-78.563,2.334],[-78.552,2.363],[-78.561,2.364],[-78.556,2.375],[-78.568,2.377],[-78.57,2.385],[-78.563,2.391],[-78.559,2.416],[-78.567,2.414],[-78.564,2.433]]]]}}]}